{"type": "FeatureCollection", "features": [{"type": "Feature", "properties": {"rank": 1, "name": "Kennedy Expressway, Irving Park", "area_m2": 43574, "volume_m3": 79431, "max_depth_m": 3.48}, "geometry": {"type": "Point", "coordinates": [-87.72032435385923, 41.94774664254976]}}, {"type": "Feature", "properties": {"rank": 2, "name": "West Wolfram Street, Hamlin Park", "area_m2": 60838, "volume_m3": 22674, "max_depth_m": 0.9}, "geometry": {"type": "Point", "coordinates": [-87.67744942606704, 41.93323665757839]}}, {"type": "Feature", "properties": {"rank": 3, "name": "North California Avenue, Maplewood", "area_m2": 10052, "volume_m3": 9868, "max_depth_m": 1.52}, "geometry": {"type": "Point", "coordinates": [-87.6977569397759, 41.93388961893847]}}, {"type": "Feature", "properties": {"rank": 4, "name": "North Mozart Street, Maplewood", "area_m2": 29405, "volume_m3": 9571, "max_depth_m": 0.89}, "geometry": {"type": "Point", "coordinates": [-87.69849462197789, 41.93295744351726]}}, {"type": "Feature", "properties": {"rank": 5, "name": "Belmont Avenue Bikeway, Avondale", "area_m2": 12910, "volume_m3": 8713, "max_depth_m": 1.59}, "geometry": {"type": "Point", "coordinates": [-87.7068853429179, 41.939111703857506]}}, {"type": "Feature", "properties": {"rank": 6, "name": "Kennedy Expressway, Maplewood", "area_m2": 10941, "volume_m3": 8559, "max_depth_m": 1.55}, "geometry": {"type": "Point", "coordinates": [-87.6940439998747, 41.93186760165026]}}, {"type": "Feature", "properties": {"rank": 7, "name": "West Byron Street, North Center", "area_m2": 19683, "volume_m3": 8185, "max_depth_m": 1.03}, "geometry": {"type": "Point", "coordinates": [-87.68902679133426, 41.95208180833049]}}, {"type": "Feature", "properties": {"rank": 8, "name": "North Lincoln Avenue, Roscoe Village", "area_m2": 9350, "volume_m3": 7719, "max_depth_m": 1.44}, "geometry": {"type": "Point", "coordinates": [-87.67394344702254, 41.9473707796298]}}, {"type": "Feature", "properties": {"rank": 9, "name": "North Seeley Avenue, Hamlin Park", "area_m2": 18179, "volume_m3": 6770, "max_depth_m": 0.99}, "geometry": {"type": "Point", "coordinates": [-87.67899935795043, 41.93493877568558]}}, {"type": "Feature", "properties": {"rank": 10, "name": "North Marshfield Avenue, West DePaul", "area_m2": 12313, "volume_m3": 5827, "max_depth_m": 1.01}, "geometry": {"type": "Point", "coordinates": [-87.66982970335947, 41.93011100146628]}}, {"type": "Feature", "properties": {"rank": 11, "name": "North Claremont Avenue, St. Bens", "area_m2": 21550, "volume_m3": 5506, "max_depth_m": 0.59}, "geometry": {"type": "Point", "coordinates": [-87.68704770213002, 41.94868013861556]}}, {"type": "Feature", "properties": {"rank": 12, "name": "North Elston Avenue, Avondale", "area_m2": 17730, "volume_m3": 5494, "max_depth_m": 1.06}, "geometry": {"type": "Point", "coordinates": [-87.695184647173, 41.93694047923394]}}]}