{"type": "FeatureCollection", "features": [{"type": "Feature", "properties": {"rank": 1, "name": "Eisenhower Expressway, Greektown", "area_m2": 813680, "volume_m3": 2240707, "max_depth_m": 8.41, "edge_truncated": false}, "geometry": {"type": "Point", "coordinates": [-87.6466649338664, 41.87567185949245]}}, {"type": "Feature", "properties": {"rank": 2, "name": "Dan Ryan Expressway (Express), Armour Square", "area_m2": 379158, "volume_m3": 1144408, "max_depth_m": 7.45, "edge_truncated": false}, "geometry": {"type": "Point", "coordinates": [-87.63090348758348, 41.84028162405049]}}, {"type": "Feature", "properties": {"rank": 3, "name": "Kennedy Expressway, Montrose", "area_m2": 245009, "volume_m3": 1018594, "max_depth_m": 9.48, "edge_truncated": false}, "geometry": {"type": "Point", "coordinates": [-87.7461258044848, 41.9628301328103]}}, {"type": "Feature", "properties": {"rank": 4, "name": "Main Service Road, O'Hare", "area_m2": 909321, "volume_m3": 925643, "max_depth_m": 3.59, "edge_truncated": false}, "geometry": {"type": "Point", "coordinates": [-87.89354347929897, 41.96802797331361]}}, {"type": "Feature", "properties": {"rank": 5, "name": "Dan Ryan Expressway, Greater Grand Crossing", "area_m2": 354039, "volume_m3": 768228, "max_depth_m": 4.71, "edge_truncated": false}, "geometry": {"type": "Point", "coordinates": [-87.62514410284885, 41.75708914050752]}}, {"type": "Feature", "properties": {"rank": 6, "name": "Dan Ryan Expressway (Local), Fuller Park", "area_m2": 330032, "volume_m3": 743018, "max_depth_m": 5.83, "edge_truncated": false}, "geometry": {"type": "Point", "coordinates": [-87.63119687979086, 41.80884599283833]}}, {"type": "Feature", "properties": {"rank": 7, "name": "Kennedy Expressway, Jefferson Park", "area_m2": 200460, "volume_m3": 716357, "max_depth_m": 6.7, "edge_truncated": false}, "geometry": {"type": "Point", "coordinates": [-87.75779272570036, 41.9687341221083]}}, {"type": "Feature", "properties": {"rank": 8, "name": "West Kinzie Street, Fulton Market District", "area_m2": 208900, "volume_m3": 710398, "max_depth_m": 7.8, "edge_truncated": false}, "geometry": {"type": "Point", "coordinates": [-87.64841536648449, 41.889082105404505]}}, {"type": "Feature", "properties": {"rank": 9, "name": "Concourse Service Road, O'Hare", "area_m2": 94273, "volume_m3": 665138, "max_depth_m": 11.63, "edge_truncated": false}, "geometry": {"type": "Point", "coordinates": [-87.91961432554479, 41.97493729387834]}}, {"type": "Feature", "properties": {"rank": 10, "name": "Kennedy Expressway, O'Hare", "area_m2": 229175, "volume_m3": 659073, "max_depth_m": 9.44, "edge_truncated": true}, "geometry": {"type": "Point", "coordinates": [-87.87721334200015, 41.981997052199546]}}, {"type": "Feature", "properties": {"rank": 11, "name": "West Ann Lurie Place, Archer Heights", "area_m2": 880301, "volume_m3": 505837, "max_depth_m": 3.51, "edge_truncated": false}, "geometry": {"type": "Point", "coordinates": [-87.73574243366586, 41.81636617550834]}}, {"type": "Feature", "properties": {"rank": 12, "name": "South Kenwood Avenue, Marynook", "area_m2": 1409082, "volume_m3": 496311, "max_depth_m": 1.63, "edge_truncated": false}, "geometry": {"type": "Point", "coordinates": [-87.59098828294368, 41.73944503663672]}}, {"type": "Feature", "properties": {"rank": 13, "name": "Kennedy Expressway, Irving Park", "area_m2": 112857, "volume_m3": 442064, "max_depth_m": 6.86, "edge_truncated": false}, "geometry": {"type": "Point", "coordinates": [-87.72032435433631, 41.94774664260232]}}, {"type": "Feature", "properties": {"rank": 14, "name": "South Colfax Avenue, South Chicago Heights", "area_m2": 1124043, "volume_m3": 400966, "max_depth_m": 1.85, "edge_truncated": false}, "geometry": {"type": "Point", "coordinates": [-87.56037906276687, 41.725178125085726]}}, {"type": "Feature", "properties": {"rank": 15, "name": "East 33rd Street, Douglas", "area_m2": 324294, "volume_m3": 327761, "max_depth_m": 2.6, "edge_truncated": false}, "geometry": {"type": "Point", "coordinates": [-87.60995070723162, 41.8357112345212]}}, {"type": "Feature", "properties": {"rank": 16, "name": "Kennedy Expressway, O'Hare", "area_m2": 98845, "volume_m3": 318352, "max_depth_m": 8.93, "edge_truncated": false}, "geometry": {"type": "Point", "coordinates": [-87.89561016360845, 41.981161489368006]}}, {"type": "Feature", "properties": {"rank": 17, "name": "East 103rd Street, South Deering", "area_m2": 640424, "volume_m3": 306795, "max_depth_m": 1.98, "edge_truncated": false}, "geometry": {"type": "Point", "coordinates": [-87.57597182718875, 41.707546263484424]}}, {"type": "Feature", "properties": {"rank": 18, "name": "West 60th Place, Clearing", "area_m2": 573323, "volume_m3": 289398, "max_depth_m": 2.17, "edge_truncated": false}, "geometry": {"type": "Point", "coordinates": [-87.79329873894883, 41.782603576374015]}}, {"type": "Feature", "properties": {"rank": 19, "name": "Kennedy Expressway, Norwood Park", "area_m2": 69669, "volume_m3": 259351, "max_depth_m": 6.76, "edge_truncated": false}, "geometry": {"type": "Point", "coordinates": [-87.79152860032688, 41.982691894735986]}}, {"type": "Feature", "properties": {"rank": 20, "name": "South Avenue F, East Side", "area_m2": 409802, "volume_m3": 246712, "max_depth_m": 1.92, "edge_truncated": false}, "geometry": {"type": "Point", "coordinates": [-87.52989720969569, 41.70574136166954]}}, {"type": "Feature", "properties": {"rank": 21, "name": "East 47th Drive, Kenwood", "area_m2": 556716, "volume_m3": 233436, "max_depth_m": 2.61, "edge_truncated": false}, "geometry": {"type": "Point", "coordinates": [-87.590590268657, 41.81014277060302]}}, {"type": "Feature", "properties": {"rank": 22, "name": "Stevenson Expressway, Archer Heights", "area_m2": 84921, "volume_m3": 225373, "max_depth_m": 6.42, "edge_truncated": false}, "geometry": {"type": "Point", "coordinates": [-87.71601588171659, 41.82565082084241]}}, {"type": "Feature", "properties": {"rank": 23, "name": "West 63rd Street, West Englewood", "area_m2": 546718, "volume_m3": 220403, "max_depth_m": 1.81, "edge_truncated": false}, "geometry": {"type": "Point", "coordinates": [-87.67843707459609, 41.779214142137846]}}, {"type": "Feature", "properties": {"rank": 24, "name": "East 93rd Street, Burnside", "area_m2": 503754, "volume_m3": 217208, "max_depth_m": 1.69, "edge_truncated": false}, "geometry": {"type": "Point", "coordinates": [-87.60315063961761, 41.725772213670716]}}, {"type": "Feature", "properties": {"rank": 25, "name": "East 84th Street, South Chicago", "area_m2": 629413, "volume_m3": 212492, "max_depth_m": 1.36, "edge_truncated": false}, "geometry": {"type": "Point", "coordinates": [-87.55799592994775, 41.74294259173005]}}, {"type": "Feature", "properties": {"rank": 26, "name": "East 89th Street, Garden Homes", "area_m2": 538603, "volume_m3": 211289, "max_depth_m": 1.67, "edge_truncated": false}, "geometry": {"type": "Point", "coordinates": [-87.62213300695883, 41.73302074603414]}}, {"type": "Feature", "properties": {"rank": 27, "name": "East 130th Street, Avalon Trails", "area_m2": 165419, "volume_m3": 206809, "max_depth_m": 7.87, "edge_truncated": false}, "geometry": {"type": "Point", "coordinates": [-87.56051113101698, 41.658714075593075]}}, {"type": "Feature", "properties": {"rank": 28, "name": "East 124th Street, West Pullman", "area_m2": 219451, "volume_m3": 202358, "max_depth_m": 2.49, "edge_truncated": false}, "geometry": {"type": "Point", "coordinates": [-87.61294922334744, 41.66878658666518]}}, {"type": "Feature", "properties": {"rank": 29, "name": "O'Hare Arrivals Terminal 3, O'Hare", "area_m2": 256111, "volume_m3": 200375, "max_depth_m": 5.33, "edge_truncated": false}, "geometry": {"type": "Point", "coordinates": [-87.90324888326079, 41.976733446891544]}}, {"type": "Feature", "properties": {"rank": 30, "name": "O'Hare", "area_m2": 109283, "volume_m3": 189981, "max_depth_m": 4.32, "edge_truncated": true}, "geometry": {"type": "Point", "coordinates": [-87.93355995814998, 41.95874796459417]}}, {"type": "Feature", "properties": {"rank": 31, "name": "South Charles Street, Beverly", "area_m2": 305677, "volume_m3": 181505, "max_depth_m": 1.44, "edge_truncated": false}, "geometry": {"type": "Point", "coordinates": [-87.6638706571496, 41.72023138684153]}}, {"type": "Feature", "properties": {"rank": 32, "name": "South Oakley Avenue, McKinley Park", "area_m2": 308151, "volume_m3": 175521, "max_depth_m": 1.57, "edge_truncated": false}, "geometry": {"type": "Point", "coordinates": [-87.68291408063257, 41.833688367689085]}}, {"type": "Feature", "properties": {"rank": 33, "name": "South Sangamon Street, Englewood", "area_m2": 418684, "volume_m3": 169742, "max_depth_m": 1.13, "edge_truncated": false}, "geometry": {"type": "Point", "coordinates": [-87.64783217742068, 41.75842258471138]}}, {"type": "Feature", "properties": {"rank": 34, "name": "South Doty Avenue East, Hegewisch", "area_m2": 275063, "volume_m3": 161742, "max_depth_m": 2.54, "edge_truncated": false}, "geometry": {"type": "Point", "coordinates": [-87.58280364720719, 41.65346011755011]}}, {"type": "Feature", "properties": {"rank": 35, "name": "West Greenleaf Avenue, Rogers Park", "area_m2": 327681, "volume_m3": 159223, "max_depth_m": 1.36, "edge_truncated": false}, "geometry": {"type": "Point", "coordinates": [-87.67600302694407, 42.009810673015835]}}, {"type": "Feature", "properties": {"rank": 36, "name": "Bishop Ford Freeway, Roseland", "area_m2": 80563, "volume_m3": 151716, "max_depth_m": 6.11, "edge_truncated": false}, "geometry": {"type": "Point", "coordinates": [-87.62476841885209, 41.71585704414986]}}, {"type": "Feature", "properties": {"rank": 37, "name": "South Marquette Avenue, Vet's Park", "area_m2": 347234, "volume_m3": 146223, "max_depth_m": 1.39, "edge_truncated": false}, "geometry": {"type": "Point", "coordinates": [-87.55840835148116, 41.71974745767784]}}, {"type": "Feature", "properties": {"rank": 38, "name": "West 50th Place, West Elsdon", "area_m2": 365689, "volume_m3": 143589, "max_depth_m": 2.85, "edge_truncated": false}, "geometry": {"type": "Point", "coordinates": [-87.71453202338752, 41.80157565883273]}}, {"type": "Feature", "properties": {"rank": 39, "name": "South Central Park Avenue, Mitchells Subdivision", "area_m2": 282055, "volume_m3": 143226, "max_depth_m": 1.21, "edge_truncated": true}, "geometry": {"type": "Point", "coordinates": [-87.71201650238805, 41.73849759357949]}}, {"type": "Feature", "properties": {"rank": 40, "name": "Eisenhower Expressway, Austin", "area_m2": 94885, "volume_m3": 138426, "max_depth_m": 3.3, "edge_truncated": false}, "geometry": {"type": "Point", "coordinates": [-87.74471535550552, 41.871682330895354]}}]}