{
"type": "FeatureCollection",
"name": "north-side-pilot_pools",
"crs": { "type": "name", "properties": { "name": "urn:ogc:def:crs:OGC:1.3:CRS84" } },
"xy_coordinate_resolution": 1e-06,
"features": [
{"type":"Feature","properties":{"rank":1,"name":"Kennedy Expressway, Irving Park","area_m2":43574,"volume_m3":79431,"max_depth_m":3.48},"geometry":{"type":"Polygon","coordinates":[[[-87.720716,41.948784],[-87.720701,41.947488],[-87.720168,41.947212],[-87.720035,41.947231],[-87.719878,41.947178],[-87.719891,41.947295],[-87.719818,41.947277],[-87.718917,41.946544],[-87.718586,41.946051],[-87.718609,41.945934],[-87.718559,41.945817],[-87.717625,41.944282],[-87.717554,41.9444],[-87.717372,41.944311],[-87.717374,41.944473],[-87.717277,41.94442],[-87.717487,41.944824],[-87.717463,41.944887],[-87.717378,41.944851],[-87.717132,41.94443],[-87.717073,41.944556],[-87.716758,41.94445],[-87.716771,41.944522],[-87.716735,41.944477],[-87.716723,41.944513],[-87.71676,41.944612],[-87.717117,41.945195],[-87.717214,41.945249],[-87.717326,41.945563],[-87.717363,41.945599],[-87.717446,41.945545],[-87.717507,41.94558],[-87.717987,41.946424],[-87.71805,41.946649],[-87.71843,41.947169],[-87.718358,41.947223],[-87.718395,41.947277],[-87.719332,41.948028],[-87.719964,41.948411],[-87.720716,41.948784]],[[-87.716783,41.944522],[-87.716771,41.944531],[-87.716771,41.944522],[-87.716783,41.944522]]]}},
{"type":"Feature","properties":{"rank":2,"name":"West Wolfram Street, Hamlin Park","area_m2":60838,"volume_m3":22674,"max_depth_m":0.9},"geometry":{"type":"Polygon","coordinates":[[[-87.678187,41.93629],[-87.678172,41.935984],[-87.678136,41.935948],[-87.678182,41.93575],[-87.678188,41.935236],[-87.678138,41.935029],[-87.678169,41.934507],[-87.678104,41.93412],[-87.678139,41.934003],[-87.678095,41.933264],[-87.678034,41.933211],[-87.678082,41.933138],[-87.678104,41.932967],[-87.678053,41.932724],[-87.677993,41.932743],[-87.678042,41.932769],[-87.678057,41.933129],[-87.678021,41.93313],[-87.677948,41.933076],[-87.677888,41.933112],[-87.677815,41.933041],[-87.677935,41.932941],[-87.67779,41.932951],[-87.677717,41.932861],[-87.677716,41.932789],[-87.677837,41.932771],[-87.677824,41.932735],[-87.677534,41.932718],[-87.677497,41.932646],[-87.677196,41.932639],[-87.677182,41.932495],[-87.677097,41.932451],[-87.676977,41.932469],[-87.67693,41.932587],[-87.676785,41.932579],[-87.676917,41.932533],[-87.67676,41.932453],[-87.676772,41.932525],[-87.676688,41.932552],[-87.676773,41.932552],[-87.676725,41.932597],[-87.676762,41.932642],[-87.676618,41.932733],[-87.676593,41.93267],[-87.676509,41.93267],[-87.676507,41.932562],[-87.676399,41.932545],[-87.676374,41.932446],[-87.676326,41.932518],[-87.676374,41.932527],[-87.676302,41.932536],[-87.676327,41.932572],[-87.67622,41.932717],[-87.676063,41.932745],[-87.67592,41.932881],[-87.675859,41.932863],[-87.675822,41.932791],[-87.67587,41.932773],[-87.675761,41.93272],[-87.675736,41.932621],[-87.675702,41.932819],[-87.67564,41.932684],[-87.675633,41.933153],[-87.675477,41.93319],[-87.675537,41.933225],[-87.675478,41.933262],[-87.675647,41.933297],[-87.675667,41.934044],[-87.675426,41.934073],[-87.675398,41.933767],[-87.675326,41.933749],[-87.675281,41.934038],[-87.674883,41.934076],[-87.67487,41.933968],[-87.674809,41.933959],[-87.67475,41.934086],[-87.674872,41.934157],[-87.675294,41.934137],[-87.674896,41.934166],[-87.674788,41.934221],[-87.674789,41.934266],[-87.674885,41.934265],[-87.674909,41.93422],[-87.675174,41.934227],[-87.675091,41.934336],[-87.675296,41.934335],[-87.675322,41.934569],[-87.675226,41.934587],[-87.675323,41.934623],[-87.675467,41.934568],[-87.675478,41.934469],[-87.675539,41.934549],[-87.675648,41.934576],[-87.675621,41.934243],[-87.675657,41.934224],[-87.675646,41.934333],[-87.675671,41.934486],[-87.67566,41.934549],[-87.675684,41.934576],[-87.675552,41.93463],[-87.675625,41.934657],[-87.675553,41.93472],[-87.675626,41.934729],[-87.675627,41.934846],[-87.675555,41.934856],[-87.67547,41.934802],[-87.675447,41.934964],[-87.675158,41.934966],[-87.675074,41.93502],[-87.674881,41.935031],[-87.675255,41.935046],[-87.674942,41.935093],[-87.675377,41.935127],[-87.675605,41.935098],[-87.675619,41.935215],[-87.675715,41.935188],[-87.67573,41.935467],[-87.675789,41.935295],[-87.675827,41.93552],[-87.675899,41.93552],[-87.675839,41.935475],[-87.675896,41.935241],[-87.675956,41.935195],[-87.676017,41.935222],[-87.67604,41.93515],[-87.67645,41.935147],[-87.676561,41.935336],[-87.67673,41.935398],[-87.676813,41.935208],[-87.676764,41.935164],[-87.676957,41.935162],[-87.676909,41.935208],[-87.677019,41.93527],[-87.677077,41.935135],[-87.67709,41.93518],[-87.677174,41.935152],[-87.677139,41.93526],[-87.6772,41.935269],[-87.677213,41.935359],[-87.677128,41.93536],[-87.677153,41.935414],[-87.677201,41.93544],[-87.677225,41.935377],[-87.677345,41.935376],[-87.677224,41.935269],[-87.677368,41.935232],[-87.677477,41.935286],[-87.67749,41.935385],[-87.677575,41.935393],[-87.677575,41.935456],[-87.677491,41.935466],[-87.677504,41.935502],[-87.677637,41.935555],[-87.677633,41.935195],[-87.677886,41.935139],[-87.67791,41.935175],[-87.677802,41.935176],[-87.677814,41.935248],[-87.677826,41.935193],[-87.677839,41.935256],[-87.67808,41.935237],[-87.678044,41.935255],[-87.678081,41.935336],[-87.67802,41.935327],[-87.678022,41.935435],[-87.677961,41.935418],[-87.677962,41.935517],[-87.678071,41.935534],[-87.678094,41.935471],[-87.678135,41.935867],[-87.677677,41.935888],[-87.677592,41.935843],[-87.677568,41.935888],[-87.677387,41.935862],[-87.677158,41.935918],[-87.676832,41.935902],[-87.676917,41.935955],[-87.676761,41.935983],[-87.677533,41.935979],[-87.67705,41.935937],[-87.677822,41.935914],[-87.677846,41.935941],[-87.67769,41.935978],[-87.677931,41.935985],[-87.677871,41.936031],[-87.678136,41.935993],[-87.678187,41.93629]],[[-87.677979,41.935985],[-87.677943,41.935994],[-87.677943,41.935985],[-87.677979,41.935985]],[[-87.678093,41.935381],[-87.678058,41.935444],[-87.678057,41.935354],[-87.678093,41.935381]],[[-87.677213,41.935368],[-87.677201,41.935386],[-87.677201,41.935368],[-87.677213,41.935368]],[[-87.677297,41.935341],[-87.677273,41.935359],[-87.677285,41.935341],[-87.677297,41.935341]],[[-87.677285,41.935332],[-87.677273,41.935341],[-87.677273,41.935332],[-87.677285,41.935332]],[[-87.677224,41.935296],[-87.677212,41.935305],[-87.677212,41.935296],[-87.677224,41.935296]],[[-87.677476,41.935213],[-87.677464,41.935223],[-87.677464,41.935214],[-87.677476,41.935213]],[[-87.677464,41.935205],[-87.677452,41.935214],[-87.677452,41.935205],[-87.677464,41.935205]],[[-87.677935,41.935193],[-87.677923,41.935202],[-87.677922,41.935193],[-87.677935,41.935193]],[[-87.676583,41.935183],[-87.676572,41.935201],[-87.676571,41.935183],[-87.676583,41.935183]],[[-87.678079,41.935147],[-87.678055,41.935165],[-87.678055,41.935147],[-87.678079,41.935147]],[[-87.676595,41.935156],[-87.676583,41.935174],[-87.676583,41.935156],[-87.676595,41.935156]],[[-87.676583,41.935129],[-87.676559,41.935147],[-87.676571,41.935129],[-87.676583,41.935129]],[[-87.675303,41.934992],[-87.675279,41.93501],[-87.675279,41.934992],[-87.675303,41.934992]],[[-87.675194,41.934984],[-87.675158,41.935011],[-87.675158,41.934984],[-87.675194,41.934984]],[[-87.675532,41.934946],[-87.67552,41.934955],[-87.675519,41.934946],[-87.675532,41.934946]],[[-87.676448,41.934913],[-87.676364,41.934941],[-87.676364,41.934923],[-87.676448,41.934913]],[[-87.678052,41.934895],[-87.67804,41.934922],[-87.67804,41.934895],[-87.678052,41.934895]],[[-87.677956,41.934922],[-87.677859,41.934896],[-87.677859,41.93486],[-87.67769,41.93487],[-87.677702,41.934834],[-87.677629,41.934825],[-87.677749,41.934762],[-87.677677,41.934771],[-87.677676,41.934708],[-87.677893,41.934734],[-87.678039,41.934814],[-87.678064,41.934877],[-87.677956,41.934922]],[[-87.675652,41.934927],[-87.675628,41.934936],[-87.675628,41.934927],[-87.675652,41.934927]],[[-87.675616,41.934918],[-87.67558,41.934936],[-87.675579,41.934918],[-87.675616,41.934918]],[[-87.676231,41.934924],[-87.676134,41.934852],[-87.676182,41.934834],[-87.676182,41.934879],[-87.67623,41.934879],[-87.676277,41.934761],[-87.676169,41.934753],[-87.67618,41.934672],[-87.676096,41.934735],[-87.676095,41.934627],[-87.676324,41.934608],[-87.676265,41.934698],[-87.67635,41.934779],[-87.676314,41.934842],[-87.676351,41.93486],[-87.676231,41.934924]],[[-87.67617,41.934897],[-87.676158,41.934906],[-87.676158,41.934897],[-87.67617,41.934897]],[[-87.676918,41.934884],[-87.676894,41.934893],[-87.676894,41.934884],[-87.676918,41.934884]],[[-87.676556,41.934877],[-87.676544,41.934886],[-87.676544,41.934877],[-87.676556,41.934877]],[[-87.676652,41.934849],[-87.676556,41.93485],[-87.676556,41.934841],[-87.676652,41.934849]],[[-87.675916,41.934844],[-87.675904,41.934853],[-87.675904,41.934844],[-87.675916,41.934844]],[[-87.676953,41.934811],[-87.676881,41.934839],[-87.676881,41.934812],[-87.676953,41.934811]],[[-87.676157,41.934807],[-87.676085,41.934798],[-87.676181,41.934771],[-87.676157,41.934807]],[[-87.67705,41.934775],[-87.677026,41.934793],[-87.677013,41.934766],[-87.67705,41.934775]],[[-87.676893,41.934785],[-87.676881,41.934794],[-87.676881,41.934785],[-87.676893,41.934785]],[[-87.677049,41.934748],[-87.677001,41.934757],[-87.677001,41.934721],[-87.677061,41.93473],[-87.677049,41.934748]],[[-87.677085,41.934738],[-87.677061,41.934748],[-87.677061,41.934739],[-87.677085,41.934738]],[[-87.677037,41.934703],[-87.677025,41.934712],[-87.677025,41.934703],[-87.677037,41.934703]],[[-87.676301,41.934707],[-87.676289,41.934716],[-87.676289,41.934707],[-87.676301,41.934707]],[[-87.6777,41.934681],[-87.677676,41.934699],[-87.677676,41.934681],[-87.6777,41.934681]],[[-87.676518,41.934706],[-87.676458,41.934697],[-87.676518,41.934652],[-87.676493,41.934607],[-87.676553,41.934624],[-87.676553,41.934579],[-87.676649,41.93457],[-87.676661,41.934489],[-87.676805,41.934497],[-87.676818,41.934542],[-87.67689,41.934541],[-87.676818,41.934569],[-87.676939,41.934595],[-87.676891,41.93464],[-87.676626,41.934606],[-87.676578,41.934669],[-87.676529,41.934643],[-87.676518,41.934706]],[[-87.677048,41.934658],[-87.677012,41.934676],[-87.677024,41.934649],[-87.677048,41.934658]],[[-87.677073,41.934666],[-87.677061,41.934676],[-87.67706,41.934667],[-87.677073,41.934666]],[[-87.677133,41.934648],[-87.677109,41.934666],[-87.677096,41.934648],[-87.677133,41.934648]],[[-87.677169,41.934648],[-87.677157,41.934657],[-87.677157,41.934648],[-87.677169,41.934648]],[[-87.67794,41.934598],[-87.677916,41.934616],[-87.677928,41.934598],[-87.67794,41.934598]],[[-87.677699,41.934609],[-87.677675,41.934636],[-87.677663,41.934609],[-87.677699,41.934609]],[[-87.677012,41.934631],[-87.677,41.93464],[-87.677,41.934631],[-87.677012,41.934631]],[[-87.675902,41.934637],[-87.67589,41.934646],[-87.67589,41.934637],[-87.675902,41.934637]],[[-87.677699,41.934591],[-87.677687,41.9346],[-87.677687,41.934591],[-87.677699,41.934591]],[[-87.677807,41.934563],[-87.677723,41.934582],[-87.677723,41.934537],[-87.677807,41.934563]],[[-87.678024,41.934571],[-87.678012,41.93458],[-87.678012,41.934571],[-87.678024,41.934571]],[[-87.677843,41.934563],[-87.677819,41.934581],[-87.677819,41.934563],[-87.677843,41.934563]],[[-87.678073,41.934561],[-87.678048,41.934553],[-87.678072,41.934552],[-87.678073,41.934561]],[[-87.676492,41.934562],[-87.676299,41.934554],[-87.676299,41.9345],[-87.676432,41.934508],[-87.676492,41.934562]],[[-87.676601,41.934543],[-87.676577,41.934552],[-87.676577,41.934543],[-87.676601,41.934543]],[[-87.676251,41.934545],[-87.676227,41.934554],[-87.676227,41.934545],[-87.676251,41.934545]],[[-87.676142,41.934546],[-87.67613,41.934555],[-87.67613,41.934546],[-87.676142,41.934546]],[[-87.677336,41.93453],[-87.677324,41.934539],[-87.677324,41.93453],[-87.677336,41.93453]],[[-87.676154,41.934537],[-87.676142,41.934546],[-87.676142,41.934537],[-87.676154,41.934537]],[[-87.678036,41.934526],[-87.677976,41.934517],[-87.677963,41.934454],[-87.678059,41.934444],[-87.678036,41.934526]],[[-87.676215,41.934527],[-87.676178,41.934501],[-87.676226,41.934455],[-87.676238,41.934491],[-87.676215,41.934527]],[[-87.67607,41.93451],[-87.676034,41.934528],[-87.676034,41.934519],[-87.67607,41.93451]],[[-87.675901,41.934511],[-87.675889,41.93452],[-87.675889,41.934511],[-87.675901,41.934511]],[[-87.676118,41.934492],[-87.676094,41.934483],[-87.676154,41.934483],[-87.676118,41.934492]],[[-87.675925,41.934511],[-87.675888,41.934448],[-87.67596,41.934403],[-87.675973,41.934493],[-87.675925,41.934511]],[[-87.676238,41.934446],[-87.676226,41.934455],[-87.676226,41.934446],[-87.676238,41.934446]],[[-87.677721,41.934401],[-87.677673,41.934411],[-87.677673,41.934393],[-87.677721,41.934401]],[[-87.678058,41.934354],[-87.678047,41.934381],[-87.678046,41.934354],[-87.678058,41.934354]],[[-87.675996,41.934385],[-87.675984,41.934394],[-87.675984,41.934385],[-87.675996,41.934385]],[[-87.675586,41.934387],[-87.675465,41.93437],[-87.675586,41.934369],[-87.675586,41.934387]],[[-87.677769,41.934329],[-87.677733,41.934356],[-87.677744,41.93432],[-87.677769,41.934329]],[[-87.678046,41.934327],[-87.678022,41.934346],[-87.67801,41.934319],[-87.678022,41.934328],[-87.678046,41.934327]],[[-87.67807,41.934309],[-87.678034,41.934319],[-87.678034,41.934301],[-87.67807,41.934309]],[[-87.677684,41.934303],[-87.67766,41.934321],[-87.677672,41.934303],[-87.677684,41.934303]],[[-87.678045,41.934246],[-87.677961,41.934283],[-87.677985,41.93422],[-87.678045,41.934246]],[[-87.677925,41.934256],[-87.677877,41.934274],[-87.677888,41.934229],[-87.677925,41.934256]],[[-87.675476,41.934289],[-87.675464,41.934298],[-87.675464,41.934289],[-87.675476,41.934289]],[[-87.677864,41.934274],[-87.67778,41.934275],[-87.67778,41.934257],[-87.677852,41.934248],[-87.677864,41.934274]],[[-87.677768,41.934266],[-87.677744,41.934275],[-87.677744,41.934266],[-87.677768,41.934266]],[[-87.675669,41.934278],[-87.675657,41.934287],[-87.675657,41.934278],[-87.675669,41.934278]],[[-87.675283,41.934263],[-87.675223,41.934254],[-87.675222,41.934236],[-87.675283,41.934227],[-87.675283,41.934263]],[[-87.675476,41.934226],[-87.675464,41.934235],[-87.675464,41.934226],[-87.675476,41.934226]],[[-87.675488,41.934216],[-87.675476,41.934226],[-87.675476,41.934217],[-87.675488,41.934216]],[[-87.6755,41.934207],[-87.675488,41.934216],[-87.675488,41.934207],[-87.6755,41.934207]],[[-87.675523,41.934135],[-87.675414,41.934145],[-87.675414,41.934136],[-87.675523,41.934135]],[[-87.676053,41.934024],[-87.676028,41.934015],[-87.676052,41.934015],[-87.676053,41.934024]],[[-87.67803,41.933985],[-87.677994,41.933995],[-87.678042,41.933967],[-87.67803,41.933985]],[[-87.67797,41.934004],[-87.677921,41.933959],[-87.677921,41.933914],[-87.677945,41.933914],[-87.67797,41.934004]],[[-87.676318,41.934004],[-87.676306,41.934013],[-87.676306,41.934004],[-87.676318,41.934004]],[[-87.676306,41.933995],[-87.676281,41.934005],[-87.676281,41.933996],[-87.676306,41.933995]],[[-87.678041,41.933877],[-87.678005,41.933904],[-87.678029,41.933877],[-87.678041,41.933877]],[[-87.677872,41.933869],[-87.677703,41.933834],[-87.677751,41.933771],[-87.677654,41.93378],[-87.677641,41.933717],[-87.677738,41.933753],[-87.677907,41.933725],[-87.677919,41.933761],[-87.677859,41.933779],[-87.678004,41.933823],[-87.677872,41.933869]],[[-87.677015,41.933757],[-87.676906,41.933758],[-87.676918,41.933704],[-87.676773,41.933686],[-87.676784,41.933632],[-87.676928,41.93355],[-87.676965,41.933586],[-87.676929,41.933614],[-87.677001,41.933649],[-87.676942,41.933685],[-87.677147,41.933693],[-87.677015,41.933757]],[[-87.676713,41.93375],[-87.676701,41.933759],[-87.676701,41.93375],[-87.676713,41.93375]],[[-87.67658,41.933742],[-87.676556,41.933751],[-87.676556,41.933742],[-87.67658,41.933742]],[[-87.676688,41.933696],[-87.676665,41.933741],[-87.676604,41.933696],[-87.676688,41.933696]],[[-87.678027,41.933697],[-87.678015,41.933706],[-87.678015,41.933697],[-87.678027,41.933697]],[[-87.676749,41.933705],[-87.676713,41.933705],[-87.676749,41.933696],[-87.676749,41.933705]],[[-87.678003,41.933697],[-87.677834,41.933653],[-87.677786,41.933699],[-87.677784,41.933554],[-87.677941,41.933526],[-87.677952,41.933463],[-87.67788,41.933437],[-87.67794,41.933409],[-87.678024,41.933418],[-87.678038,41.933544],[-87.678074,41.933526],[-87.678074,41.93358],[-87.678014,41.933544],[-87.677954,41.933571],[-87.677966,41.933607],[-87.678038,41.933598],[-87.678003,41.933697]],[[-87.677689,41.93369],[-87.677677,41.933699],[-87.677677,41.93369],[-87.677689,41.93369]],[[-87.677689,41.933663],[-87.677653,41.933681],[-87.677653,41.933654],[-87.677665,41.933663],[-87.677689,41.933663]],[[-87.677749,41.933654],[-87.677737,41.933663],[-87.677737,41.933654],[-87.677749,41.933654]],[[-87.677725,41.933654],[-87.677689,41.933663],[-87.677689,41.933654],[-87.677725,41.933654]],[[-87.67717,41.933639],[-87.677122,41.933594],[-87.677218,41.933585],[-87.67723,41.933603],[-87.67717,41.933639]],[[-87.676772,41.933632],[-87.67676,41.933642],[-87.67676,41.933633],[-87.676772,41.933632]],[[-87.676748,41.933597],[-87.6767,41.933642],[-87.676675,41.933561],[-87.676748,41.933597]],[[-87.677773,41.933591],[-87.677749,41.933573],[-87.677773,41.933573],[-87.677773,41.933591]],[[-87.677663,41.933501],[-87.677639,41.93351],[-87.677639,41.933492],[-87.677663,41.933501]],[[-87.678073,41.933418],[-87.678061,41.93349],[-87.67806,41.933418],[-87.678073,41.933418]],[[-87.676577,41.933399],[-87.676528,41.933355],[-87.6766,41.933336],[-87.6766,41.933363],[-87.676577,41.933399]],[[-87.678012,41.933355],[-87.678,41.933364],[-87.678,41.933355],[-87.678012,41.933355]],[[-87.678011,41.933337],[-87.677999,41.933346],[-87.677999,41.933337],[-87.678011,41.933337]],[[-87.678059,41.933319],[-87.678048,41.933337],[-87.678047,41.933319],[-87.678059,41.933319]],[[-87.677963,41.933292],[-87.677927,41.933337],[-87.677914,41.933292],[-87.677963,41.933292]],[[-87.678023,41.933292],[-87.677999,41.93331],[-87.677999,41.933292],[-87.678023,41.933292]],[[-87.676272,41.933077],[-87.676248,41.933086],[-87.676248,41.933077],[-87.676272,41.933077]],[[-87.677658,41.932961],[-87.677609,41.932943],[-87.677609,41.932916],[-87.677693,41.932915],[-87.677658,41.932961]],[[-87.675787,41.932891],[-87.675775,41.932909],[-87.675775,41.932891],[-87.675787,41.932891]],[[-87.677705,41.932861],[-87.677681,41.932853],[-87.677705,41.932852],[-87.677705,41.932861]],[[-87.676258,41.932879],[-87.676233,41.932834],[-87.676317,41.932798],[-87.676294,41.932861],[-87.676258,41.932879]],[[-87.676366,41.932824],[-87.676342,41.932851],[-87.676341,41.932797],[-87.676366,41.932824]],[[-87.676197,41.932843],[-87.676124,41.932808],[-87.676076,41.932826],[-87.67604,41.932808],[-87.676208,41.93278],[-87.676197,41.932843]],[[-87.676943,41.93265],[-87.676786,41.932651],[-87.676785,41.932606],[-87.67693,41.932596],[-87.676943,41.93265]]]}},
{"type":"Feature","properties":{"rank":3,"name":"North California Avenue, Maplewood","area_m2":10052,"volume_m3":9868,"max_depth_m":1.52},"geometry":{"type":"Polygon","coordinates":[[[-87.697628,41.934778],[-87.697663,41.934714],[-87.69776,41.934759],[-87.697772,41.934705],[-87.698036,41.934613],[-87.697817,41.934461],[-87.697814,41.934155],[-87.698311,41.934413],[-87.69842,41.934421],[-87.698407,41.934322],[-87.697933,41.933974],[-87.697934,41.932965],[-87.697885,41.932885],[-87.697968,41.932821],[-87.697737,41.932642],[-87.697653,41.932697],[-87.697545,41.932661],[-87.697376,41.932699],[-87.697425,41.932761],[-87.697355,41.932951],[-87.697416,41.933068],[-87.697407,41.933293],[-87.697359,41.93332],[-87.697398,41.933599],[-87.697315,41.933753],[-87.69717,41.933745],[-87.697535,41.933977],[-87.69755,41.934256],[-87.697502,41.934283],[-87.697368,41.934203],[-87.697139,41.934159],[-87.697236,41.934267],[-87.697321,41.934275],[-87.697515,41.934418],[-87.697518,41.934643],[-87.697628,41.934778]]]}},
{"type":"Feature","properties":{"rank":4,"name":"North Mozart Street, Maplewood","area_m2":29405,"volume_m3":9571,"max_depth_m":0.89},"geometry":{"type":"Polygon","coordinates":[[[-87.700636,41.934093],[-87.701009,41.934],[-87.701034,41.934045],[-87.70113,41.934045],[-87.701132,41.934216],[-87.700999,41.934226],[-87.700904,41.934289],[-87.701145,41.934333],[-87.701122,41.934378],[-87.701182,41.934405],[-87.701159,41.934495],[-87.700979,41.934541],[-87.700979,41.934559],[-87.7011,41.934567],[-87.701052,41.934595],[-87.701088,41.934648],[-87.700787,41.934632],[-87.700131,41.934267],[-87.698856,41.933428],[-87.698768,41.933176],[-87.698479,41.93316],[-87.698393,41.933062],[-87.698343,41.932864],[-87.698535,41.932764],[-87.698354,41.932774],[-87.698304,41.932639],[-87.698437,41.932638],[-87.69846,41.932593],[-87.698581,41.932574],[-87.698678,41.932601],[-87.698593,41.932538],[-87.698616,41.932484],[-87.698676,41.932474],[-87.698689,41.93251],[-87.698785,41.932447],[-87.69876,41.932411],[-87.698808,41.93242],[-87.698846,41.932509],[-87.698905,41.932419],[-87.698905,41.932464],[-87.699026,41.932445],[-87.699039,41.932517],[-87.699123,41.932517],[-87.699073,41.932364],[-87.699133,41.932364],[-87.699145,41.93231],[-87.699339,41.932452],[-87.699255,41.932453],[-87.699196,41.932525],[-87.699003,41.932581],[-87.69898,41.932644],[-87.69904,41.932643],[-87.699005,41.932707],[-87.699065,41.932688],[-87.699064,41.932625],[-87.699221,41.932624],[-87.699232,41.932561],[-87.699329,41.932561],[-87.699353,41.932614],[-87.699438,41.932623],[-87.699366,41.932641],[-87.699354,41.932696],[-87.699427,41.932704],[-87.69957,41.932568],[-87.699642,41.932568],[-87.699594,41.932541],[-87.699642,41.932505],[-87.700003,41.932502],[-87.700014,41.932376],[-87.700064,41.932511],[-87.700111,41.932448],[-87.700209,41.93251],[-87.700486,41.932508],[-87.70051,41.932463],[-87.700534,41.932508],[-87.700715,41.932525],[-87.700655,41.932561],[-87.700704,41.932606],[-87.700716,41.932606],[-87.700716,41.932624],[-87.700752,41.932606],[-87.700813,41.932606],[-87.700824,41.932551],[-87.70109,41.93255],[-87.701139,41.932703],[-87.701007,41.93273],[-87.701068,41.932748],[-87.70102,41.932838],[-87.701093,41.932901],[-87.700925,41.932992],[-87.701071,41.93309],[-87.701048,41.933127],[-87.701121,41.933207],[-87.701086,41.933306],[-87.701122,41.933342],[-87.701027,41.933415],[-87.701003,41.933505],[-87.701017,41.933631],[-87.700908,41.933623],[-87.700847,41.933524],[-87.70075,41.933516],[-87.700739,41.933606],[-87.700655,41.933597],[-87.700667,41.933651],[-87.700571,41.933652],[-87.700523,41.933715],[-87.700572,41.933742],[-87.700451,41.933734],[-87.700428,41.933797],[-87.700464,41.933806],[-87.700536,41.933778],[-87.700669,41.933813],[-87.700657,41.933849],[-87.700682,41.933849],[-87.700717,41.933804],[-87.700802,41.933876],[-87.700682,41.933903],[-87.700924,41.933938],[-87.700695,41.933966],[-87.700647,41.934012],[-87.700406,41.933995],[-87.700322,41.93405],[-87.700431,41.934121],[-87.700636,41.93412],[-87.700636,41.934093]],[[-87.700636,41.934129],[-87.70066,41.93412],[-87.700636,41.93412],[-87.700636,41.934129]],[[-87.700699,41.934345],[-87.700662,41.934282],[-87.700602,41.934282],[-87.700579,41.934363],[-87.700651,41.93439],[-87.700699,41.934345]],[[-87.700673,41.93421],[-87.700674,41.934255],[-87.70071,41.934236],[-87.700673,41.93421]],[[-87.70048,41.934184],[-87.70036,41.934212],[-87.700432,41.934229],[-87.70048,41.934184]],[[-87.700697,41.934146],[-87.700685,41.934146],[-87.700649,41.934192],[-87.700697,41.934191],[-87.700697,41.934146]],[[-87.700323,41.934176],[-87.700323,41.934194],[-87.700347,41.934176],[-87.700323,41.934176]],[[-87.700768,41.934074],[-87.700769,41.934119],[-87.700793,41.934074],[-87.700768,41.934074]],[[-87.699667,41.933738],[-87.699667,41.933747],[-87.699691,41.933738],[-87.699667,41.933738]],[[-87.69957,41.933721],[-87.699571,41.93373],[-87.699595,41.933721],[-87.69957,41.933721]],[[-87.700463,41.933707],[-87.700463,41.933716],[-87.700499,41.933706],[-87.700463,41.933707]],[[-87.700245,41.933636],[-87.700245,41.933645],[-87.700257,41.933636],[-87.700245,41.933636]],[[-87.699508,41.933532],[-87.699628,41.933495],[-87.699603,41.933424],[-87.699724,41.93345],[-87.699784,41.933377],[-87.699687,41.933387],[-87.699578,41.933325],[-87.699528,41.933181],[-87.699613,41.933162],[-87.699587,41.933045],[-87.699527,41.933046],[-87.699552,41.933127],[-87.699456,41.933172],[-87.699442,41.932983],[-87.699381,41.932984],[-87.699382,41.933047],[-87.699225,41.933057],[-87.699238,41.933093],[-87.699346,41.933065],[-87.699359,41.933092],[-87.699262,41.93311],[-87.699395,41.933137],[-87.699335,41.933191],[-87.699215,41.933183],[-87.699276,41.933308],[-87.699144,41.933318],[-87.69912,41.933354],[-87.69906,41.933328],[-87.699012,41.933382],[-87.699096,41.933391],[-87.699158,41.933462],[-87.699181,41.933417],[-87.699194,41.933462],[-87.699399,41.933515],[-87.699424,41.933569],[-87.699327,41.933524],[-87.699376,41.933614],[-87.699461,41.93365],[-87.699508,41.933532]],[[-87.699532,41.93355],[-87.699533,41.933604],[-87.699617,41.933577],[-87.699532,41.93355]],[[-87.700689,41.933471],[-87.700677,41.933471],[-87.700642,41.933543],[-87.700715,41.933561],[-87.700689,41.933471]],[[-87.700582,41.933544],[-87.700582,41.933553],[-87.700618,41.933534],[-87.700582,41.933544]],[[-87.700774,41.933443],[-87.700761,41.933425],[-87.70075,41.933507],[-87.700822,41.933443],[-87.700774,41.933443]],[[-87.699773,41.933495],[-87.699773,41.933513],[-87.699785,41.933494],[-87.699773,41.933495]],[[-87.699906,41.933485],[-87.699906,41.933494],[-87.699918,41.933485],[-87.699906,41.933485]],[[-87.700773,41.93338],[-87.700773,41.933425],[-87.700821,41.933389],[-87.700773,41.93338]],[[-87.700358,41.93296],[-87.700249,41.932942],[-87.700214,41.932988],[-87.700275,41.933041],[-87.700215,41.933105],[-87.700275,41.933104],[-87.700287,41.933059],[-87.700384,41.933068],[-87.700457,41.933166],[-87.700361,41.933185],[-87.700336,41.93314],[-87.700276,41.933167],[-87.70024,41.93314],[-87.700289,41.933284],[-87.70041,41.933257],[-87.700567,41.933292],[-87.700507,41.933337],[-87.700326,41.933338],[-87.700339,41.933374],[-87.700387,41.933356],[-87.700412,41.933437],[-87.700641,41.933435],[-87.700649,41.933111],[-87.700468,41.933103],[-87.700504,41.93304],[-87.700455,41.933022],[-87.700467,41.932959],[-87.700358,41.93296]],[[-87.700479,41.93295],[-87.700467,41.93295],[-87.700467,41.932959],[-87.700479,41.93295]],[[-87.699905,41.933395],[-87.699905,41.933431],[-87.699929,41.933404],[-87.699905,41.933395]],[[-87.70029,41.933365],[-87.700266,41.933365],[-87.700291,41.933392],[-87.70029,41.933365]],[[-87.699904,41.933323],[-87.699892,41.933359],[-87.699952,41.933349],[-87.699904,41.933323]],[[-87.700302,41.933347],[-87.700302,41.933356],[-87.700314,41.933347],[-87.700302,41.933347]],[[-87.700398,41.933311],[-87.700423,41.933328],[-87.700458,41.933301],[-87.700398,41.933311]],[[-87.70035,41.933302],[-87.70035,41.93332],[-87.700386,41.933302],[-87.70035,41.933302]],[[-87.700471,41.933301],[-87.700471,41.93331],[-87.700519,41.933292],[-87.700471,41.933301]],[[-87.700253,41.933293],[-87.700254,41.933312],[-87.700265,41.933293],[-87.700253,41.933293]],[[-87.698998,41.933256],[-87.698999,41.933274],[-87.699011,41.933256],[-87.698998,41.933256]],[[-87.699902,41.933197],[-87.699915,41.933242],[-87.699939,41.933196],[-87.699902,41.933197]],[[-87.69901,41.933238],[-87.69901,41.933247],[-87.699034,41.933238],[-87.69901,41.933238]],[[-87.699637,41.933216],[-87.699638,41.933234],[-87.699673,41.933216],[-87.699637,41.933216]],[[-87.700988,41.93319],[-87.700988,41.933208],[-87.701024,41.93319],[-87.700988,41.93319]],[[-87.69925,41.933128],[-87.699118,41.933174],[-87.699251,41.933155],[-87.69925,41.933128]],[[-87.699926,41.93316],[-87.699926,41.933169],[-87.69995,41.93316],[-87.699926,41.93316]],[[-87.699034,41.933166],[-87.699034,41.933175],[-87.699046,41.933166],[-87.699034,41.933166]],[[-87.700758,41.933101],[-87.700758,41.93311],[-87.70077,41.933101],[-87.700758,41.933101]],[[-87.699225,41.933039],[-87.699056,41.932995],[-87.699045,41.933085],[-87.699142,41.933111],[-87.699225,41.933039]],[[-87.699865,41.933053],[-87.699865,41.933071],[-87.699877,41.933053],[-87.699865,41.933053]],[[-87.698514,41.933043],[-87.698514,41.933079],[-87.69855,41.933052],[-87.698514,41.933043]],[[-87.698441,41.933061],[-87.698454,41.933079],[-87.698478,41.933061],[-87.698441,41.933061]],[[-87.700576,41.933012],[-87.700576,41.933048],[-87.700624,41.933021],[-87.700576,41.933012]],[[-87.698417,41.933043],[-87.698429,41.933061],[-87.698441,41.933043],[-87.698417,41.933043]],[[-87.700793,41.932984],[-87.700793,41.933011],[-87.700817,41.932993],[-87.700793,41.932984]],[[-87.700576,41.932976],[-87.700576,41.932985],[-87.700612,41.932967],[-87.700576,41.932976]],[[-87.699067,41.932913],[-87.699043,41.932914],[-87.699007,41.932977],[-87.699068,41.932976],[-87.699067,41.932913]],[[-87.699936,41.932944],[-87.699911,41.932881],[-87.69979,41.932855],[-87.699779,41.932918],[-87.699876,41.932963],[-87.699936,41.932944]],[[-87.698681,41.932907],[-87.698633,41.932898],[-87.698621,41.932925],[-87.698682,41.932952],[-87.698681,41.932907]],[[-87.698561,41.932917],[-87.698561,41.932926],[-87.698573,41.932916],[-87.698561,41.932917]],[[-87.700261,41.932888],[-87.700261,41.932897],[-87.700273,41.932888],[-87.700261,41.932888]],[[-87.700237,41.93287],[-87.700237,41.932888],[-87.700249,41.93287],[-87.700237,41.93287]],[[-87.699573,41.932856],[-87.699548,41.932784],[-87.699513,41.932839],[-87.699525,41.932884],[-87.699573,41.932856]],[[-87.700248,41.932798],[-87.700261,41.93287],[-87.700321,41.932843],[-87.700248,41.932798]],[[-87.699609,41.932838],[-87.699609,41.932856],[-87.699645,41.932847],[-87.699609,41.932838]],[[-87.698643,41.932781],[-87.698656,41.932826],[-87.698704,41.93279],[-87.698643,41.932781]],[[-87.700224,41.93278],[-87.700224,41.932807],[-87.700236,41.93278],[-87.700224,41.93278]],[[-87.699416,41.932794],[-87.699416,41.932812],[-87.699428,41.932794],[-87.699416,41.932794]],[[-87.699077,41.932715],[-87.699017,41.932725],[-87.699041,41.93276],[-87.699114,41.932778],[-87.699077,41.932715]],[[-87.698583,41.932772],[-87.698583,41.932781],[-87.698595,41.932772],[-87.698583,41.932772]],[[-87.699511,41.932731],[-87.699512,41.932767],[-87.699536,41.93273],[-87.699511,41.932731]],[[-87.698631,41.932763],[-87.698631,41.932772],[-87.698643,41.932763],[-87.698631,41.932763]],[[-87.698571,41.932763],[-87.698571,41.932772],[-87.698583,41.932763],[-87.698571,41.932763]],[[-87.700223,41.932744],[-87.700223,41.932753],[-87.700235,41.932744],[-87.700223,41.932744]],[[-87.699403,41.932713],[-87.699403,41.93274],[-87.699427,41.932722],[-87.699403,41.932713]],[[-87.698667,41.932718],[-87.698643,41.932718],[-87.698667,41.932736],[-87.698667,41.932718]],[[-87.699644,41.93273],[-87.699644,41.932739],[-87.699656,41.93273],[-87.699644,41.93273]],[[-87.699921,41.932656],[-87.699728,41.932702],[-87.699837,41.932711],[-87.699849,41.932702],[-87.699909,41.932719],[-87.699921,41.932656]],[[-87.700343,41.932653],[-87.70027,41.932591],[-87.700222,41.932609],[-87.700259,41.932699],[-87.700343,41.932653]],[[-87.699571,41.932676],[-87.699571,41.932694],[-87.699583,41.932676],[-87.699571,41.932676]],[[-87.698932,41.932689],[-87.698932,41.932698],[-87.698944,41.932689],[-87.698932,41.932689]],[[-87.700922,41.93265],[-87.700934,41.932668],[-87.700946,41.93265],[-87.700922,41.93265]],[[-87.700729,41.932651],[-87.700729,41.93266],[-87.700741,41.932651],[-87.700729,41.932651]],[[-87.700367,41.932635],[-87.700367,41.932653],[-87.700403,41.932635],[-87.700367,41.932635]],[[-87.699558,41.932613],[-87.699558,41.932622],[-87.69957,41.932613],[-87.699558,41.932613]],[[-87.700149,41.932583],[-87.700149,41.932601],[-87.700161,41.932583],[-87.700149,41.932583]],[[-87.699908,41.932557],[-87.699835,41.932557],[-87.699872,41.932602],[-87.69992,41.932602],[-87.699908,41.932557]],[[-87.699702,41.932558],[-87.699715,41.932576],[-87.699787,41.932558],[-87.699702,41.932558]],[[-87.700619,41.932553],[-87.700619,41.932562],[-87.700643,41.932553],[-87.700619,41.932553]],[[-87.698918,41.932482],[-87.698918,41.932509],[-87.698942,41.932491],[-87.698918,41.932482]],[[-87.699158,41.932381],[-87.699135,41.932463],[-87.699147,41.932508],[-87.699194,41.932381],[-87.699158,41.932381]],[[-87.699206,41.932372],[-87.699194,41.932372],[-87.699194,41.932381],[-87.699206,41.932372]],[[-87.699195,41.932453],[-87.699195,41.93248],[-87.699231,41.932453],[-87.699195,41.932453]],[[-87.699242,41.932408],[-87.699243,41.932417],[-87.699255,41.932408],[-87.699242,41.932408]]]}},
{"type":"Feature","properties":{"rank":5,"name":"Belmont Avenue Bikeway, Avondale","area_m2":12910,"volume_m3":8713,"max_depth_m":1.59},"geometry":{"type":"Polygon","coordinates":[[[-87.707569,41.940355],[-87.707616,41.940256],[-87.707725,41.940318],[-87.707761,41.940291],[-87.707795,41.940101],[-87.707744,41.939858],[-87.707768,41.939804],[-87.70784,41.939804],[-87.707815,41.939714],[-87.707874,41.939569],[-87.70844,41.939485],[-87.708631,41.939313],[-87.708665,41.939177],[-87.708253,41.938937],[-87.708266,41.939072],[-87.708169,41.939036],[-87.707989,41.939064],[-87.707939,41.938921],[-87.707866,41.938876],[-87.707733,41.938895],[-87.707793,41.93884],[-87.707431,41.938843],[-87.707394,41.938762],[-87.707278,41.939195],[-87.707061,41.93916],[-87.706612,41.938911],[-87.70643,41.938858],[-87.706407,41.938975],[-87.706748,41.939225],[-87.70658,41.93928],[-87.706072,41.939238],[-87.706059,41.939148],[-87.706049,41.939283],[-87.706122,41.939319],[-87.706098,41.939409],[-87.706329,41.939489],[-87.706354,41.939588],[-87.706414,41.939569],[-87.706463,41.939668],[-87.706547,41.939614],[-87.70668,41.939658],[-87.706656,41.939604],[-87.706715,41.939541],[-87.706618,41.939451],[-87.706762,41.939414],[-87.707148,41.939439],[-87.707427,41.939581],[-87.707513,41.939671],[-87.707527,41.939896],[-87.707468,41.939968],[-87.707359,41.93996],[-87.707372,41.940005],[-87.707312,41.940023],[-87.707445,41.940103],[-87.707569,41.940355]]]}},
{"type":"Feature","properties":{"rank":6,"name":"Kennedy Expressway, Maplewood","area_m2":10941,"volume_m3":8559,"max_depth_m":1.55},"geometry":{"type":"Polygon","coordinates":[[[-87.694022,41.932638],[-87.694055,41.932367],[-87.694018,41.932215],[-87.69444,41.932212],[-87.694658,41.932319],[-87.694657,41.932265],[-87.694718,41.932246],[-87.6959,41.932239],[-87.696562,41.932181],[-87.696441,41.932119],[-87.696525,41.932037],[-87.696075,41.931734],[-87.695724,41.931592],[-87.695603,41.931628],[-87.695992,41.931887],[-87.695969,41.931987],[-87.694341,41.931987],[-87.693794,41.931657],[-87.693516,41.931551],[-87.693517,41.93165],[-87.693979,41.931954],[-87.693991,41.932026],[-87.69322,41.932039],[-87.693269,41.932138],[-87.693209,41.932192],[-87.693391,41.932236],[-87.693369,41.932426],[-87.693272,41.932417],[-87.693273,41.932507],[-87.693358,41.932534],[-87.693417,41.932452],[-87.69349,41.932524],[-87.693586,41.932469],[-87.693683,41.932532],[-87.693828,41.932486],[-87.693888,41.932504],[-87.693913,41.932611],[-87.693985,41.93253],[-87.694022,41.932638]],[[-87.693887,41.932449],[-87.693876,41.932459],[-87.693875,41.93245],[-87.693887,41.932449]]]}},
{"type":"Feature","properties":{"rank":7,"name":"West Byron Street, North Center","area_m2":19683,"volume_m3":8185,"max_depth_m":1.03},"geometry":{"type":"Polygon","coordinates":[[[-87.689023,41.952284],[-87.68994,41.952279],[-87.689927,41.952234],[-87.69,41.952234],[-87.689976,41.95227],[-87.690181,41.952269],[-87.690156,41.952224],[-87.690193,41.952268],[-87.690422,41.952267],[-87.690711,41.95222],[-87.69076,41.952265],[-87.69076,41.952202],[-87.690373,41.952204],[-87.690301,41.952169],[-87.69082,41.952175],[-87.690801,41.951616],[-87.690752,41.951545],[-87.690705,41.951581],[-87.690607,41.951509],[-87.690511,41.951528],[-87.690486,41.951465],[-87.690197,41.951503],[-87.690148,41.951413],[-87.690219,41.951314],[-87.690194,41.951233],[-87.68988,41.951199],[-87.68941,41.951228],[-87.6893,41.951166],[-87.689275,41.951013],[-87.68919,41.951005],[-87.689142,41.951023],[-87.689143,41.951149],[-87.689035,41.95115],[-87.689007,41.950789],[-87.688958,41.950754],[-87.688947,41.950817],[-87.68885,41.950799],[-87.688863,41.950907],[-87.688803,41.950944],[-87.688864,41.950925],[-87.688865,41.951052],[-87.688961,41.950997],[-87.688962,41.951069],[-87.688878,41.951114],[-87.688926,41.951168],[-87.688842,41.95116],[-87.688756,41.951043],[-87.688828,41.950971],[-87.688623,41.950972],[-87.688624,41.951125],[-87.688541,41.951234],[-87.688594,41.951693],[-87.688669,41.951881],[-87.68861,41.952026],[-87.688636,41.952161],[-87.688901,41.952186],[-87.688781,41.952232],[-87.689023,41.952284]],[[-87.690362,41.952249],[-87.690289,41.952232],[-87.690362,41.952231],[-87.690362,41.952249]],[[-87.689228,41.952247],[-87.689192,41.952256],[-87.689191,41.952238],[-87.689228,41.952247]],[[-87.69041,41.952231],[-87.690386,41.952249],[-87.690386,41.952231],[-87.69041,41.952231]],[[-87.689517,41.952245],[-87.689505,41.952255],[-87.689505,41.952246],[-87.689517,41.952245]],[[-87.689421,41.952237],[-87.689385,41.952255],[-87.689384,41.952237],[-87.689421,41.952237]],[[-87.689602,41.952236],[-87.68959,41.952245],[-87.68959,41.952236],[-87.689602,41.952236]],[[-87.689505,41.952237],[-87.689493,41.952246],[-87.689493,41.952237],[-87.689505,41.952237]],[[-87.690048,41.952215],[-87.689951,41.952171],[-87.690204,41.952178],[-87.690192,41.952196],[-87.690048,41.952215]],[[-87.689505,41.952201],[-87.689191,41.952184],[-87.689541,41.952182],[-87.689505,41.952201]],[[-87.689866,41.952171],[-87.689698,41.95219],[-87.689698,41.952181],[-87.689866,41.952171]],[[-87.689939,41.952171],[-87.689903,41.952189],[-87.689903,41.952171],[-87.689939,41.952171]],[[-87.689238,41.952121],[-87.689226,41.952139],[-87.689226,41.952121],[-87.689238,41.952121]],[[-87.689513,41.951813],[-87.689488,41.951786],[-87.689524,41.951768],[-87.689512,41.951777],[-87.689513,41.951813]],[[-87.689126,41.95177],[-87.68909,41.951798],[-87.689078,41.95178],[-87.689126,41.95177]],[[-87.689077,41.951708],[-87.689052,41.9516],[-87.689136,41.951554],[-87.689075,41.951492],[-87.689147,41.951491],[-87.68916,41.95159],[-87.689256,41.951527],[-87.689281,41.951607],[-87.689378,41.951625],[-87.689377,41.951571],[-87.689522,41.951597],[-87.689499,41.95166],[-87.689402,41.951616],[-87.689342,41.951661],[-87.689234,41.951671],[-87.689161,41.951635],[-87.689077,41.951708]],[[-87.689414,41.951661],[-87.689378,41.951688],[-87.689378,41.951643],[-87.689414,41.951661]],[[-87.689607,41.951623],[-87.689571,41.951669],[-87.689559,41.951615],[-87.689607,41.951623]],[[-87.690234,41.951575],[-87.69021,41.951584],[-87.69021,41.951575],[-87.690234,41.951575]],[[-87.689377,41.951544],[-87.689365,41.951553],[-87.689365,41.951544],[-87.689377,41.951544]],[[-87.689485,41.951525],[-87.689473,41.951534],[-87.689473,41.951525],[-87.689485,41.951525]],[[-87.689389,41.951535],[-87.689328,41.951526],[-87.689364,41.951463],[-87.689388,41.951472],[-87.689389,41.951535]],[[-87.689509,41.951507],[-87.689461,41.951516],[-87.689461,41.951507],[-87.689509,41.951507]],[[-87.689256,41.951509],[-87.689232,41.951518],[-87.689232,41.951509],[-87.689256,41.951509]],[[-87.689135,41.951473],[-87.689038,41.951465],[-87.689037,41.951393],[-87.689146,41.951383],[-87.689135,41.951473]],[[-87.689497,41.951444],[-87.689472,41.951453],[-87.689472,41.951435],[-87.689497,41.951444]],[[-87.689967,41.951405],[-87.689955,41.951414],[-87.689955,41.951405],[-87.689967,41.951405]],[[-87.688965,41.951366],[-87.688953,41.951384],[-87.688953,41.951366],[-87.688965,41.951366]],[[-87.689239,41.951103],[-87.689167,41.951095],[-87.689239,41.951094],[-87.689239,41.951103]],[[-87.689179,41.951086],[-87.689166,41.951041],[-87.689239,41.951049],[-87.689239,41.951067],[-87.689179,41.951086]]]}},
{"type":"Feature","properties":{"rank":8,"name":"North Lincoln Avenue, Roscoe Village","area_m2":9350,"volume_m3":7719,"max_depth_m":1.44},"geometry":{"type":"Polygon","coordinates":[[[-87.674219,41.947761],[-87.674242,41.947689],[-87.674351,41.947688],[-87.674313,41.947562],[-87.67441,41.947544],[-87.674238,41.947238],[-87.674322,41.947238],[-87.674392,41.94703],[-87.674537,41.946994],[-87.674524,41.946913],[-87.674873,41.946856],[-87.674571,41.946849],[-87.674571,41.946777],[-87.67451,41.946741],[-87.67428,41.946662],[-87.674183,41.946671],[-87.674135,41.946645],[-87.674159,41.946599],[-87.673977,41.946519],[-87.673968,41.946799],[-87.673775,41.946827],[-87.67371,41.946413],[-87.673638,41.946395],[-87.673542,41.946477],[-87.673481,41.94645],[-87.673434,41.946514],[-87.673325,41.946496],[-87.673313,41.94655],[-87.673217,41.946569],[-87.67328,41.946812],[-87.673183,41.946785],[-87.673075,41.946858],[-87.673125,41.946939],[-87.673065,41.947011],[-87.673186,41.947055],[-87.673163,41.94711],[-87.673235,41.947163],[-87.673356,41.947163],[-87.67349,41.947252],[-87.673552,41.947468],[-87.673636,41.947413],[-87.673673,41.947476],[-87.673767,41.947187],[-87.674024,41.947618],[-87.674219,41.947761]],[[-87.673638,41.94644],[-87.673626,41.946449],[-87.673626,41.94644],[-87.673638,41.94644]]]}},
{"type":"Feature","properties":{"rank":9,"name":"North Seeley Avenue, Hamlin Park","area_m2":18179,"volume_m3":6770,"max_depth_m":0.99},"geometry":{"type":"Polygon","coordinates":[[[-87.678586,41.934036],[-87.679177,41.934051],[-87.678972,41.934097],[-87.679359,41.934122],[-87.679385,41.934356],[-87.679433,41.934337],[-87.679443,41.934121],[-87.680058,41.934117],[-87.68001,41.934154],[-87.679467,41.934139],[-87.679491,41.935238],[-87.679395,41.935247],[-87.679408,41.935391],[-87.679372,41.935391],[-87.679371,41.935283],[-87.679323,41.93532],[-87.679286,41.935275],[-87.679203,41.935401],[-87.679301,41.935473],[-87.679408,41.935409],[-87.67941,41.935589],[-87.679349,41.935482],[-87.679277,41.935491],[-87.679242,41.935617],[-87.679193,41.935546],[-87.679195,41.935717],[-87.679098,41.935726],[-87.679087,41.935798],[-87.678966,41.935817],[-87.679015,41.935862],[-87.679245,41.935879],[-87.679377,41.935869],[-87.679401,41.935824],[-87.679462,41.935877],[-87.679485,41.935814],[-87.679594,41.935876],[-87.680089,41.935856],[-87.680005,41.935919],[-87.680126,41.935936],[-87.679595,41.935958],[-87.679608,41.935993],[-87.679547,41.935994],[-87.679547,41.935958],[-87.679378,41.935959],[-87.679354,41.935995],[-87.679318,41.935959],[-87.678317,41.935974],[-87.678291,41.935776],[-87.678364,41.935884],[-87.678665,41.935864],[-87.678665,41.935828],[-87.678651,41.93563],[-87.678578,41.93563],[-87.678566,41.935576],[-87.678396,41.935496],[-87.678324,41.935542],[-87.678289,41.935677],[-87.678264,41.935524],[-87.678198,41.93275],[-87.678213,41.932975],[-87.678261,41.933002],[-87.678332,41.932867],[-87.678476,41.932821],[-87.678513,41.932902],[-87.678418,41.932983],[-87.678273,41.933002],[-87.678227,41.933219],[-87.678276,41.933254],[-87.67829,41.933461],[-87.678288,41.933281],[-87.678602,41.933315],[-87.678556,41.933478],[-87.678677,41.933531],[-87.678653,41.933576],[-87.678533,41.933604],[-87.678509,41.933649],[-87.678352,41.93365],[-87.678279,41.933597],[-87.67828,41.93366],[-87.678582,41.933676],[-87.678546,41.93373],[-87.678595,41.933757],[-87.678487,41.933802],[-87.678596,41.933865],[-87.678597,41.933937],[-87.678537,41.933964],[-87.678586,41.934036]],[[-87.678549,41.933946],[-87.67838,41.933938],[-87.678405,41.934037],[-87.678369,41.934037],[-87.67838,41.933965],[-87.678319,41.933957],[-87.678333,41.934056],[-87.678562,41.934045],[-87.678501,41.934019],[-87.678537,41.933964],[-87.678549,41.933946]],[[-87.679872,41.935884],[-87.67986,41.93592],[-87.679896,41.935893],[-87.679872,41.935884]],[[-87.679076,41.935916],[-87.679076,41.935925],[-87.679088,41.935915],[-87.679076,41.935916]],[[-87.678931,41.935853],[-87.678931,41.935862],[-87.678943,41.935853],[-87.678931,41.935853]],[[-87.678701,41.935828],[-87.678701,41.935837],[-87.678713,41.935828],[-87.678701,41.935828]],[[-87.678675,41.935639],[-87.678663,41.935675],[-87.678699,41.935648],[-87.678675,41.935639]],[[-87.679133,41.935609],[-87.679085,41.935654],[-87.679158,41.935654],[-87.679133,41.935609]],[[-87.679084,41.935546],[-87.679084,41.935555],[-87.67912,41.935546],[-87.679084,41.935546]],[[-87.678419,41.935334],[-87.678358,41.935334],[-87.678336,41.935488],[-87.678396,41.935487],[-87.678419,41.935334]],[[-87.678456,41.935424],[-87.678456,41.935451],[-87.678492,41.935433],[-87.678456,41.935424]],[[-87.678309,41.935263],[-87.678298,41.935344],[-87.678333,41.935271],[-87.678309,41.935263]],[[-87.678357,41.935235],[-87.678321,41.93519],[-87.678296,41.9352],[-87.678309,41.935254],[-87.678357,41.935235]],[[-87.678332,41.935109],[-87.678332,41.935127],[-87.678368,41.935127],[-87.678332,41.935109]],[[-87.67833,41.934956],[-87.678318,41.935001],[-87.678354,41.934974],[-87.67833,41.934956]],[[-87.678438,41.934938],[-87.67839,41.934893],[-87.678366,41.93492],[-87.678427,41.934983],[-87.678438,41.934938]],[[-87.678414,41.934875],[-87.678413,41.934821],[-87.678329,41.934821],[-87.678341,41.934893],[-87.678414,41.934875]],[[-87.679335,41.93414],[-87.679214,41.93414],[-87.679226,41.934167],[-87.679082,41.934204],[-87.679046,41.934186],[-87.679094,41.934168],[-87.6789,41.934142],[-87.678889,41.934187],[-87.678793,41.934215],[-87.678831,41.934377],[-87.678879,41.934386],[-87.678902,41.934331],[-87.678829,41.934242],[-87.67901,41.934196],[-87.679036,41.934367],[-87.67912,41.934348],[-87.679241,41.934419],[-87.679048,41.934412],[-87.679085,41.934528],[-87.678868,41.934476],[-87.678845,41.934602],[-87.678942,41.934655],[-87.679268,41.934644],[-87.679292,41.934689],[-87.679197,41.934789],[-87.679258,41.934861],[-87.679354,41.934869],[-87.679335,41.93414]],[[-87.679448,41.934625],[-87.6794,41.934617],[-87.67939,41.934842],[-87.679439,41.93486],[-87.679448,41.934625]],[[-87.678534,41.934811],[-87.678546,41.934856],[-87.67857,41.934811],[-87.678534,41.934811]],[[-87.678594,41.934829],[-87.678594,41.934838],[-87.678606,41.934829],[-87.678594,41.934829]],[[-87.678498,41.93482],[-87.678498,41.934829],[-87.67851,41.93482],[-87.678498,41.93482]],[[-87.678652,41.93463],[-87.678593,41.934703],[-87.678568,41.93464],[-87.678628,41.934594],[-87.678531,41.934604],[-87.678531,41.934559],[-87.678747,41.934494],[-87.678756,41.934188],[-87.678648,41.934252],[-87.678648,41.934189],[-87.678406,41.93419],[-87.678407,41.934226],[-87.678394,41.93419],[-87.67831,41.934191],[-87.678323,41.934335],[-87.678396,41.934316],[-87.678395,41.934253],[-87.678432,41.934316],[-87.678576,41.934297],[-87.678578,41.934459],[-87.678627,41.934477],[-87.678385,41.934488],[-87.678397,41.934433],[-87.678361,41.93447],[-87.678337,41.93447],[-87.678325,41.934434],[-87.678277,41.934461],[-87.678278,41.93456],[-87.67835,41.934605],[-87.678316,41.934749],[-87.678581,41.934757],[-87.67857,41.934793],[-87.678618,41.934792],[-87.678652,41.93463]],[[-87.679172,41.934753],[-87.679172,41.934726],[-87.679063,41.934727],[-87.679088,41.934772],[-87.679172,41.934753]],[[-87.67828,41.934767],[-87.67828,41.934776],[-87.678292,41.934767],[-87.67828,41.934767]],[[-87.679196,41.934726],[-87.679196,41.934735],[-87.679208,41.934726],[-87.679196,41.934726]],[[-87.678688,41.934549],[-87.678688,41.934576],[-87.678712,41.934549],[-87.678688,41.934549]],[[-87.678687,41.934522],[-87.678687,41.934531],[-87.678724,41.934522],[-87.678687,41.934522]],[[-87.678843,41.934431],[-87.678843,41.93444],[-87.678855,41.934431],[-87.678843,41.934431]],[[-87.678264,41.934398],[-87.678264,41.934407],[-87.678276,41.934398],[-87.678264,41.934398]],[[-87.678288,41.934389],[-87.678288,41.934398],[-87.6783,41.934389],[-87.678288,41.934389]],[[-87.678264,41.934371],[-87.678264,41.93438],[-87.678288,41.934371],[-87.678264,41.934371]],[[-87.678541,41.934361],[-87.678541,41.93437],[-87.678553,41.93436],[-87.678541,41.934361]],[[-87.678469,41.934361],[-87.678469,41.93437],[-87.678481,41.934361],[-87.678469,41.934361]],[[-87.678599,41.934153],[-87.678599,41.934171],[-87.678623,41.934153],[-87.678599,41.934153]],[[-87.679069,41.934141],[-87.679069,41.934159],[-87.679081,41.934141],[-87.679069,41.934141]],[[-87.678283,41.933975],[-87.678284,41.933993],[-87.678296,41.933975],[-87.678283,41.933975]],[[-87.678259,41.933984],[-87.67826,41.933993],[-87.678272,41.933984],[-87.678259,41.933984]],[[-87.678294,41.933867],[-87.678283,41.933957],[-87.678343,41.933911],[-87.678294,41.933867]],[[-87.678259,41.93393],[-87.678259,41.933939],[-87.678271,41.93393],[-87.678259,41.93393]],[[-87.678342,41.93383],[-87.67833,41.933812],[-87.678294,41.933822],[-87.678319,41.933866],[-87.678342,41.93383]],[[-87.67827,41.933822],[-87.678246,41.933831],[-87.67827,41.933849],[-87.67827,41.933822]],[[-87.678354,41.933803],[-87.678354,41.933821],[-87.678378,41.933812],[-87.678354,41.933803]],[[-87.678306,41.933786],[-87.678306,41.933804],[-87.678354,41.933794],[-87.678306,41.933786]],[[-87.678365,41.933713],[-87.678365,41.933695],[-87.678293,41.933687],[-87.678317,41.93374],[-87.678365,41.933713]],[[-87.678244,41.933669],[-87.678244,41.933687],[-87.678256,41.933669],[-87.678244,41.933669]],[[-87.678315,41.933578],[-87.678316,41.933596],[-87.678328,41.933578],[-87.678315,41.933578]],[[-87.678279,41.933561],[-87.678243,41.933561],[-87.678279,41.93357],[-87.678279,41.933561]],[[-87.678266,41.93348],[-87.678291,41.933506],[-87.678338,41.93347],[-87.678266,41.93348]],[[-87.678266,41.933498],[-87.678266,41.933507],[-87.678278,41.933497],[-87.678266,41.933498]],[[-87.67823,41.933453],[-87.67823,41.933489],[-87.678254,41.933462],[-87.67823,41.933453]],[[-87.678229,41.933363],[-87.678229,41.933372],[-87.678241,41.933363],[-87.678229,41.933363]],[[-87.678228,41.933273],[-87.678228,41.933309],[-87.67824,41.933273],[-87.678228,41.933273]]]}},
{"type":"Feature","properties":{"rank":10,"name":"North Marshfield Avenue, West DePaul","area_m2":12313,"volume_m3":5827,"max_depth_m":1.01},"geometry":{"type":"Polygon","coordinates":[[[-87.669653,41.932278],[-87.6697,41.932152],[-87.669796,41.932079],[-87.670097,41.932068],[-87.670195,41.932203],[-87.670327,41.932094],[-87.670314,41.932031],[-87.670483,41.932003],[-87.670441,41.93149],[-87.670272,41.9315],[-87.670161,41.931248],[-87.67015,41.931303],[-87.670101,41.931303],[-87.670134,41.930969],[-87.669942,41.930998],[-87.669796,41.930908],[-87.670049,41.93088],[-87.670035,41.9307],[-87.670118,41.930546],[-87.670043,41.930366],[-87.670102,41.930186],[-87.670029,41.930177],[-87.670017,41.930096],[-87.670028,41.929997],[-87.670088,41.929979],[-87.670014,41.929898],[-87.669954,41.929908],[-87.670038,41.929853],[-87.670073,41.929754],[-87.670011,41.929565],[-87.670071,41.929502],[-87.669998,41.929493],[-87.67001,41.929439],[-87.669756,41.92944],[-87.669648,41.929495],[-87.669637,41.929558],[-87.669626,41.929675],[-87.669687,41.929729],[-87.669652,41.929801],[-87.669712,41.929855],[-87.669641,41.929954],[-87.669657,41.930279],[-87.669754,41.930341],[-87.669672,41.93063],[-87.669758,41.93071],[-87.669686,41.930756],[-87.669675,41.930864],[-87.66982,41.930872],[-87.6697,41.930963],[-87.669689,41.931071],[-87.669774,41.931116],[-87.669764,41.931332],[-87.669897,41.931403],[-87.669789,41.931449],[-87.669755,41.931602],[-87.669792,41.931674],[-87.669719,41.931674],[-87.669622,41.931594],[-87.669575,41.931684],[-87.669526,41.931603],[-87.669384,41.931928],[-87.66952,41.932252],[-87.669653,41.932278]],[[-87.670219,41.932113],[-87.670195,41.932131],[-87.670194,41.932113],[-87.670219,41.932113]],[[-87.669768,41.931746],[-87.669757,41.931782],[-87.669744,41.931746],[-87.669768,41.931746]],[[-87.669732,41.931683],[-87.66972,41.931701],[-87.66972,41.931683],[-87.669732,41.931683]],[[-87.67015,41.931321],[-87.670114,41.931348],[-87.670102,41.931321],[-87.67015,41.931321]],[[-87.670033,41.930493],[-87.670021,41.930502],[-87.670021,41.930493],[-87.670033,41.930493]]]}},
{"type":"Feature","properties":{"rank":11,"name":"North Claremont Avenue, St. Bens","area_m2":21550,"volume_m3":5506,"max_depth_m":0.59},"geometry":{"type":"Polygon","coordinates":[[[-87.687299,41.953547],[-87.687329,41.952925],[-87.68728,41.952916],[-87.687279,41.952826],[-87.687328,41.952844],[-87.687326,41.952682],[-87.687278,41.952709],[-87.687277,41.952646],[-87.687326,41.952655],[-87.687322,41.952313],[-87.687647,41.952257],[-87.687623,41.95223],[-87.687394,41.952231],[-87.687333,41.952223],[-87.687333,41.952205],[-87.687731,41.952175],[-87.687369,41.952168],[-87.68732,41.952124],[-87.68729,41.950494],[-87.687483,41.950483],[-87.687736,41.950428],[-87.687567,41.950402],[-87.687603,41.950357],[-87.687723,41.950338],[-87.687361,41.95034],[-87.687373,41.950304],[-87.687288,41.950286],[-87.687241,41.949242],[-87.687288,41.949107],[-87.68725,41.949026],[-87.687286,41.94898],[-87.687238,41.948972],[-87.687235,41.948747],[-87.687271,41.948656],[-87.687536,41.94861],[-87.687668,41.948609],[-87.687693,41.948645],[-87.687704,41.9486],[-87.687294,41.948575],[-87.687667,41.948519],[-87.68722,41.948476],[-87.687229,41.948143],[-87.687142,41.947946],[-87.687152,41.947702],[-87.687103,41.947694],[-87.687069,41.947856],[-87.687006,41.947604],[-87.687008,41.947811],[-87.686961,41.947875],[-87.686997,41.947856],[-87.687009,41.947892],[-87.686937,41.947947],[-87.686989,41.948226],[-87.686931,41.94846],[-87.686762,41.948488],[-87.686484,41.948445],[-87.686461,41.948499],[-87.686364,41.9485],[-87.68634,41.948536],[-87.686267,41.948491],[-87.686003,41.948538],[-87.686062,41.948501],[-87.685942,41.948475],[-87.685962,41.948106],[-87.685898,41.947764],[-87.685881,41.94843],[-87.685819,41.948251],[-87.685802,41.947791],[-87.685809,41.948503],[-87.685737,41.948548],[-87.685532,41.948568],[-87.685882,41.948538],[-87.685943,41.948574],[-87.686582,41.948588],[-87.685991,41.94861],[-87.685919,41.948628],[-87.685896,41.948701],[-87.685774,41.948611],[-87.685497,41.948631],[-87.685726,41.948639],[-87.685823,41.94871],[-87.685824,41.948782],[-87.685776,41.948746],[-87.685764,41.948791],[-87.685767,41.949071],[-87.685828,41.949106],[-87.685793,41.949242],[-87.685844,41.949484],[-87.685797,41.94962],[-87.685846,41.949647],[-87.685786,41.94971],[-87.685847,41.949755],[-87.685848,41.94989],[-87.685811,41.949836],[-87.685788,41.949899],[-87.685863,41.950133],[-87.685814,41.950106],[-87.685841,41.950331],[-87.685733,41.950377],[-87.686819,41.950397],[-87.686662,41.950443],[-87.686011,41.95042],[-87.685722,41.950458],[-87.685866,41.950475],[-87.685819,41.950583],[-87.685832,41.950637],[-87.685868,41.950637],[-87.6859,41.951339],[-87.685947,41.951213],[-87.685997,41.951357],[-87.68602,41.951294],[-87.685999,41.950474],[-87.686433,41.950454],[-87.68647,41.950489],[-87.686651,41.950488],[-87.68665,41.950452],[-87.686747,41.950452],[-87.686893,41.950523],[-87.687025,41.950504],[-87.687008,41.951144],[-87.687078,41.952107],[-87.686729,41.952136],[-87.686766,41.952181],[-87.686572,41.952164],[-87.686512,41.952191],[-87.686718,41.952235],[-87.686453,41.952264],[-87.686839,41.952316],[-87.687069,41.952314],[-87.687075,41.9529],[-87.687102,41.95317],[-87.68715,41.953187],[-87.687103,41.953251],[-87.687163,41.953268],[-87.687166,41.953539],[-87.687237,41.95334],[-87.687299,41.953547]],[[-87.68726,41.953259],[-87.687199,41.953259],[-87.687199,41.953232],[-87.687247,41.953232],[-87.68726,41.953259]],[[-87.687149,41.953052],[-87.687125,41.953034],[-87.687149,41.953034],[-87.687149,41.953052]],[[-87.687148,41.952962],[-87.687124,41.952953],[-87.687148,41.952953],[-87.687148,41.952962]],[[-87.68722,41.952899],[-87.687208,41.952917],[-87.687208,41.952899],[-87.68722,41.952899]],[[-87.687219,41.952872],[-87.68717,41.952809],[-87.687205,41.952692],[-87.687255,41.95279],[-87.687219,41.952872]],[[-87.687303,41.952763],[-87.687291,41.952772],[-87.687291,41.952763],[-87.687303,41.952763]],[[-87.687302,41.952727],[-87.687278,41.952754],[-87.68729,41.952727],[-87.687302,41.952727]],[[-87.687133,41.952683],[-87.687121,41.952692],[-87.687121,41.952683],[-87.687133,41.952683]],[[-87.687133,41.952665],[-87.687108,41.952593],[-87.687119,41.952539],[-87.687144,41.952575],[-87.687133,41.952665]],[[-87.687289,41.95261],[-87.687277,41.952619],[-87.687277,41.95261],[-87.687289,41.95261]],[[-87.687301,41.952592],[-87.687276,41.952547],[-87.6873,41.952547],[-87.687301,41.952592]],[[-87.687288,41.952511],[-87.687276,41.95252],[-87.687276,41.952511],[-87.687288,41.952511]],[[-87.687288,41.952484],[-87.687276,41.952493],[-87.687276,41.952484],[-87.687288,41.952484]],[[-87.687382,41.952267],[-87.687358,41.952285],[-87.687358,41.952276],[-87.687382,41.952267]],[[-87.686767,41.95228],[-87.686755,41.952289],[-87.686755,41.95228],[-87.686767,41.95228]],[[-87.687067,41.952152],[-87.687007,41.95217],[-87.687007,41.952161],[-87.687067,41.952152]],[[-87.68691,41.952162],[-87.686886,41.952171],[-87.686886,41.952162],[-87.68691,41.952162]],[[-87.68728,41.951728],[-87.687256,41.951764],[-87.687255,41.951728],[-87.68728,41.951728]],[[-87.687097,41.951566],[-87.687085,41.951576],[-87.687085,41.951567],[-87.687097,41.951566]],[[-87.687096,41.951494],[-87.687084,41.951504],[-87.687084,41.951495],[-87.687096,41.951494]],[[-87.687106,41.951314],[-87.687083,41.951359],[-87.68707,41.951314],[-87.687106,41.951314]],[[-87.687275,41.951277],[-87.687251,41.951304],[-87.68725,41.951259],[-87.687275,41.951277]],[[-87.687261,41.951097],[-87.687237,41.951133],[-87.687237,41.951097],[-87.687261,41.951097]],[[-87.68726,41.95107],[-87.687236,41.951088],[-87.687236,41.95107],[-87.68726,41.95107]],[[-87.685969,41.951042],[-87.685909,41.951033],[-87.685944,41.950988],[-87.685981,41.951006],[-87.685969,41.951042]],[[-87.687247,41.950926],[-87.687235,41.950944],[-87.687235,41.950926],[-87.687247,41.950926]],[[-87.685968,41.950934],[-87.685944,41.950943],[-87.685944,41.950934],[-87.685968,41.950934]],[[-87.687089,41.950846],[-87.687077,41.950855],[-87.687077,41.950846],[-87.687089,41.950846]],[[-87.687245,41.950737],[-87.687221,41.950782],[-87.687221,41.950737],[-87.687245,41.950737]],[[-87.687243,41.95062],[-87.68722,41.950638],[-87.687219,41.95062],[-87.687243,41.95062]],[[-87.687074,41.950594],[-87.687062,41.950603],[-87.687062,41.950594],[-87.687074,41.950594]],[[-87.685868,41.950601],[-87.685844,41.950592],[-87.685868,41.950592],[-87.685868,41.950601]],[[-87.687507,41.950447],[-87.687495,41.950465],[-87.687495,41.950447],[-87.687507,41.950447]],[[-87.686988,41.95045],[-87.686952,41.950469],[-87.686952,41.95046],[-87.686988,41.95045]],[[-87.686892,41.950451],[-87.686844,41.950469],[-87.686844,41.950451],[-87.686892,41.950451]],[[-87.687519,41.950393],[-87.687471,41.95042],[-87.687482,41.950357],[-87.687519,41.950393]],[[-87.687169,41.950395],[-87.687121,41.950413],[-87.687144,41.950386],[-87.687169,41.950395]],[[-87.686999,41.950315],[-87.685998,41.950357],[-87.685997,41.949114],[-87.685955,41.948637],[-87.686329,41.948635],[-87.686366,41.948671],[-87.686583,41.948669],[-87.686765,41.948722],[-87.686849,41.948695],[-87.68697,41.948766],[-87.686948,41.948991],[-87.686888,41.948965],[-87.686876,41.948983],[-87.686986,41.949117],[-87.686956,41.949676],[-87.687004,41.949685],[-87.686999,41.950315]],[[-87.685853,41.950349],[-87.685829,41.950358],[-87.685829,41.95034],[-87.685853,41.950349]],[[-87.686975,41.950333],[-87.686963,41.950342],[-87.686963,41.950333],[-87.686975,41.950333]],[[-87.687276,41.950295],[-87.687264,41.950305],[-87.687264,41.950296],[-87.687276,41.950295]],[[-87.687023,41.950279],[-87.687011,41.950288],[-87.687011,41.950279],[-87.687023,41.950279]],[[-87.687022,41.950225],[-87.68701,41.950261],[-87.68701,41.950225],[-87.687022,41.950225]],[[-87.687022,41.950198],[-87.68701,41.950216],[-87.68701,41.950198],[-87.687022,41.950198]],[[-87.68707,41.950162],[-87.687046,41.95018],[-87.687046,41.950162],[-87.68707,41.950162]],[[-87.687021,41.950135],[-87.687009,41.950171],[-87.687009,41.950135],[-87.687021,41.950135]],[[-87.687021,41.950108],[-87.687009,41.950126],[-87.687009,41.950108],[-87.687021,41.950108]],[[-87.685923,41.950096],[-87.685911,41.950133],[-87.685911,41.950096],[-87.685923,41.950096]],[[-87.685849,41.949935],[-87.685825,41.949944],[-87.685824,41.949917],[-87.685849,41.949935]],[[-87.685932,41.949871],[-87.68592,41.94988],[-87.68592,41.949871],[-87.685932,41.949871]],[[-87.685846,41.949701],[-87.68581,41.949692],[-87.685846,41.949683],[-87.685846,41.949701]],[[-87.687051,41.949549],[-87.687027,41.949576],[-87.687039,41.949549],[-87.687051,41.949549]],[[-87.68705,41.949423],[-87.687026,41.949459],[-87.687038,41.949423],[-87.68705,41.949423]],[[-87.685829,41.949223],[-87.685805,41.949232],[-87.685805,41.949223],[-87.685829,41.949223]],[[-87.687035,41.949162],[-87.687023,41.949189],[-87.687023,41.949162],[-87.687035,41.949162]],[[-87.687263,41.949098],[-87.687239,41.949125],[-87.687251,41.949098],[-87.687263,41.949098]],[[-87.685827,41.949025],[-87.685791,41.949079],[-87.685803,41.949016],[-87.685827,41.949025]],[[-87.685899,41.949043],[-87.685863,41.949025],[-87.685862,41.948953],[-87.685935,41.948961],[-87.685899,41.949043]],[[-87.686961,41.948991],[-87.686949,41.949],[-87.686948,41.948991],[-87.686961,41.948991]],[[-87.685971,41.948988],[-87.685959,41.949006],[-87.685959,41.948988],[-87.685971,41.948988]],[[-87.685827,41.948998],[-87.68579,41.948989],[-87.685801,41.948908],[-87.685826,41.948926],[-87.685827,41.948998]],[[-87.687032,41.948928],[-87.68702,41.948955],[-87.68702,41.948928],[-87.687032,41.948928]],[[-87.685898,41.948917],[-87.685886,41.948926],[-87.685886,41.948917],[-87.685898,41.948917]],[[-87.687031,41.948766],[-87.687019,41.948784],[-87.687006,41.948766],[-87.687031,41.948766]],[[-87.686438,41.948634],[-87.686402,41.948652],[-87.68639,41.948635],[-87.686438,41.948634]],[[-87.687355,41.948629],[-87.687307,41.948638],[-87.687307,41.948629],[-87.687355,41.948629]],[[-87.686703,41.948633],[-87.686691,41.948642],[-87.686691,41.948633],[-87.686703,41.948633]],[[-87.686595,41.948633],[-87.686583,41.948642],[-87.686583,41.948633],[-87.686595,41.948633]],[[-87.686474,41.948634],[-87.686462,41.948643],[-87.686462,41.948634],[-87.686474,41.948634]],[[-87.687125,41.948567],[-87.687089,41.948585],[-87.687077,41.948567],[-87.687125,41.948567]],[[-87.686449,41.948517],[-87.686352,41.948536],[-87.686352,41.948527],[-87.686449,41.948517]],[[-87.685809,41.94853],[-87.685785,41.948539],[-87.685785,41.94853],[-87.685809,41.94853]],[[-87.687269,41.948503],[-87.687233,41.948521],[-87.687233,41.948503],[-87.687269,41.948503]],[[-87.687184,41.948459],[-87.68716,41.948477],[-87.68716,41.948459],[-87.687184,41.948459]],[[-87.687183,41.94836],[-87.687159,41.948342],[-87.687183,41.948342],[-87.687183,41.94836]],[[-87.687168,41.948098],[-87.687156,41.948108],[-87.687156,41.948099],[-87.687168,41.948098]],[[-87.687094,41.94791],[-87.687058,41.947928],[-87.687058,41.94791],[-87.687094,41.94791]]]}},
{"type":"Feature","properties":{"rank":12,"name":"North Elston Avenue, Avondale","area_m2":17730,"volume_m3":5494,"max_depth_m":1.06},"geometry":{"type":"Polygon","coordinates":[[[-87.696271,41.937542],[-87.696295,41.937506],[-87.696222,41.937506],[-87.696185,41.937434],[-87.696233,41.937389],[-87.696221,41.937362],[-87.696317,41.937397],[-87.696256,41.937335],[-87.696304,41.93728],[-87.696485,41.93727],[-87.696412,41.937226],[-87.696484,41.937225],[-87.696496,41.93718],[-87.696547,41.93745],[-87.696704,41.937476],[-87.696752,41.93744],[-87.696849,41.937457],[-87.6968,41.93744],[-87.696848,41.937412],[-87.696885,41.937439],[-87.696968,41.937276],[-87.696954,41.937114],[-87.696785,41.937097],[-87.696941,41.937087],[-87.696965,41.936997],[-87.697121,41.936996],[-87.697096,41.936879],[-87.697048,41.936871],[-87.697047,41.936808],[-87.696939,41.936826],[-87.69689,41.936782],[-87.696794,41.936845],[-87.696685,41.936819],[-87.696614,41.936936],[-87.696492,41.936838],[-87.69642,41.936874],[-87.696433,41.936919],[-87.6963,41.936875],[-87.696167,41.936903],[-87.69613,41.936831],[-87.696071,41.936904],[-87.695974,41.936841],[-87.695877,41.936851],[-87.695841,41.936806],[-87.695888,41.93677],[-87.696033,41.936778],[-87.696177,41.936714],[-87.696527,41.936739],[-87.696587,41.936693],[-87.696237,41.936677],[-87.696309,41.936614],[-87.695959,41.936571],[-87.695874,41.936508],[-87.695909,41.936436],[-87.695836,41.936428],[-87.695908,41.936355],[-87.695982,41.936535],[-87.696151,41.936489],[-87.696198,41.936434],[-87.696284,41.936551],[-87.696308,41.936551],[-87.696308,41.936506],[-87.696404,41.936523],[-87.696428,41.936433],[-87.69691,41.936403],[-87.696934,41.93643],[-87.696946,41.936394],[-87.697018,41.936393],[-87.697006,41.936349],[-87.696777,41.936359],[-87.696764,41.936296],[-87.696643,41.936297],[-87.696644,41.936351],[-87.696584,41.93636],[-87.696582,41.936252],[-87.695967,41.936247],[-87.695882,41.936202],[-87.695859,41.936247],[-87.695822,41.936221],[-87.695786,41.936257],[-87.695605,41.936258],[-87.695677,41.936185],[-87.695568,41.936159],[-87.695581,41.936231],[-87.695437,41.936268],[-87.695447,41.936106],[-87.695411,41.936106],[-87.695398,41.936025],[-87.695349,41.936007],[-87.695348,41.935854],[-87.695384,41.935872],[-87.69542,41.9358],[-87.695685,41.935798],[-87.695504,41.935772],[-87.695527,41.935727],[-87.695287,41.935801],[-87.695226,41.935765],[-87.695045,41.935775],[-87.695215,41.93581],[-87.695192,41.935936],[-87.695229,41.935999],[-87.695181,41.936062],[-87.695229,41.936035],[-87.695219,41.93626],[-87.694966,41.936235],[-87.694821,41.936263],[-87.694808,41.936155],[-87.69488,41.936127],[-87.694808,41.936119],[-87.694867,41.936046],[-87.694795,41.936047],[-87.69477,41.93593],[-87.694735,41.936074],[-87.694651,41.936075],[-87.694615,41.936147],[-87.69447,41.936094],[-87.694362,41.936157],[-87.694289,41.936104],[-87.694278,41.936248],[-87.694218,41.936248],[-87.694145,41.936141],[-87.694159,41.936375],[-87.694219,41.936302],[-87.694244,41.936446],[-87.694642,41.936426],[-87.694644,41.936588],[-87.694439,41.936634],[-87.694597,41.936678],[-87.694622,41.936795],[-87.694756,41.936894],[-87.694999,41.937018],[-87.694974,41.936946],[-87.694852,41.936884],[-87.694864,41.936812],[-87.694804,41.936857],[-87.694658,41.93675],[-87.694742,41.936722],[-87.694767,41.936758],[-87.695116,41.936756],[-87.695044,41.936784],[-87.694997,41.936901],[-87.695034,41.936973],[-87.695155,41.936999],[-87.695168,41.937053],[-87.695494,41.937078],[-87.69547,41.937123],[-87.695542,41.937087],[-87.695687,41.937131],[-87.695807,41.937085],[-87.695785,41.937239],[-87.69599,41.937246],[-87.696064,41.937363],[-87.696016,41.937444],[-87.696149,41.937435],[-87.696125,41.93748],[-87.696271,41.937542]],[[-87.696173,41.937425],[-87.696112,41.937372],[-87.696123,41.9373],[-87.696209,41.937371],[-87.696173,41.937425]],[[-87.69658,41.937117],[-87.696531,41.937108],[-87.69658,41.937099],[-87.69658,41.937117]],[[-87.696844,41.937043],[-87.696832,41.937052],[-87.696832,41.937043],[-87.696844,41.937043]],[[-87.696748,41.937053],[-87.696627,41.937044],[-87.696602,41.936945],[-87.696747,41.93699],[-87.696748,41.937053]],[[-87.696579,41.937045],[-87.696531,41.937036],[-87.696506,41.936982],[-87.696578,41.936982],[-87.696579,41.937045]],[[-87.695312,41.936962],[-87.6953,41.936971],[-87.695299,41.936962],[-87.695312,41.936962]],[[-87.695636,41.936888],[-87.695395,41.936863],[-87.695382,41.936782],[-87.695466,41.936781],[-87.695479,41.936844],[-87.695515,41.936826],[-87.695478,41.936781],[-87.695636,41.936825],[-87.695708,41.93678],[-87.695636,41.936888]],[[-87.695828,41.936779],[-87.695756,41.936824],[-87.695768,41.936779],[-87.695828,41.936779]],[[-87.695226,41.936819],[-87.695201,41.936765],[-87.695273,41.936764],[-87.695286,41.9368],[-87.695226,41.936819]],[[-87.695298,41.9368],[-87.695286,41.936809],[-87.695286,41.9368],[-87.695298,41.9368]],[[-87.695635,41.936771],[-87.695623,41.936798],[-87.695623,41.936771],[-87.695635,41.936771]],[[-87.695165,41.936765],[-87.695129,41.936783],[-87.695128,41.936765],[-87.695165,41.936765]],[[-87.695972,41.936724],[-87.69596,41.936733],[-87.69596,41.936724],[-87.695972,41.936724]],[[-87.696056,41.93666],[-87.69602,41.936679],[-87.69602,41.936652],[-87.696056,41.93666]],[[-87.695971,41.936607],[-87.695959,41.936616],[-87.695959,41.936607],[-87.695971,41.936607]],[[-87.695875,41.936608],[-87.695863,41.936617],[-87.695863,41.936608],[-87.695875,41.936608]],[[-87.69591,41.936571],[-87.69585,41.936563],[-87.695837,41.936518],[-87.69591,41.936535],[-87.69591,41.936571]],[[-87.695488,41.936556],[-87.695476,41.936565],[-87.695476,41.936556],[-87.695488,41.936556]],[[-87.695078,41.93654],[-87.69503,41.936559],[-87.695017,41.936541],[-87.695078,41.93654]],[[-87.694752,41.93656],[-87.694716,41.936543],[-87.694727,41.936407],[-87.694788,41.936515],[-87.694752,41.93656]],[[-87.695548,41.936537],[-87.695415,41.936511],[-87.695426,41.936358],[-87.695546,41.936357],[-87.695548,41.936537]],[[-87.695584,41.936483],[-87.695572,41.936492],[-87.695572,41.936483],[-87.695584,41.936483]],[[-87.695596,41.936474],[-87.695584,41.936483],[-87.695584,41.936474],[-87.695596,41.936474]],[[-87.695161,41.936396],[-87.695065,41.936477],[-87.695113,41.936423],[-87.695087,41.936315],[-87.695124,41.936315],[-87.695161,41.936396]],[[-87.696042,41.936471],[-87.696017,41.936409],[-87.696089,41.93639],[-87.69609,41.936417],[-87.696042,41.936471]],[[-87.69615,41.936399],[-87.696114,41.93639],[-87.69615,41.93639],[-87.69615,41.936399]],[[-87.695233,41.936404],[-87.695209,41.936422],[-87.695209,41.936404],[-87.695233,41.936404]],[[-87.694642,41.936417],[-87.694413,41.936373],[-87.6944,41.93631],[-87.694641,41.936318],[-87.694642,41.936417]],[[-87.696101,41.93639],[-87.696041,41.936363],[-87.696077,41.936327],[-87.696101,41.936327],[-87.696101,41.93639]],[[-87.696005,41.936364],[-87.695981,41.936391],[-87.695944,41.936355],[-87.696005,41.936364]],[[-87.69656,41.93636],[-87.696499,41.936361],[-87.696499,41.936307],[-87.696559,41.936306],[-87.69656,41.93636]],[[-87.696186,41.936353],[-87.696174,41.936363],[-87.696173,41.936354],[-87.696186,41.936353]],[[-87.696161,41.936318],[-87.696125,41.936363],[-87.696137,41.936309],[-87.696161,41.936318]],[[-87.695233,41.936359],[-87.695208,41.936332],[-87.695232,41.936332],[-87.695233,41.936359]],[[-87.695872,41.936346],[-87.69586,41.936355],[-87.69586,41.936346],[-87.695872,41.936346]],[[-87.695546,41.936321],[-87.695534,41.936339],[-87.695534,41.936321],[-87.695546,41.936321]],[[-87.69522,41.936314],[-87.695208,41.936323],[-87.695208,41.936314],[-87.69522,41.936314]],[[-87.695087,41.936306],[-87.695075,41.936315],[-87.695075,41.936306],[-87.695087,41.936306]],[[-87.6944,41.936292],[-87.694376,41.936301],[-87.694375,41.936292],[-87.6944,41.936292]],[[-87.694435,41.936229],[-87.694411,41.936238],[-87.694411,41.93622],[-87.694435,41.936229]],[[-87.694326,41.936212],[-87.694302,41.936221],[-87.694302,41.936203],[-87.694326,41.936212]],[[-87.694411,41.936211],[-87.694399,41.93622],[-87.694399,41.936211],[-87.694411,41.936211]],[[-87.694459,41.936166],[-87.69441,41.936184],[-87.694398,41.936166],[-87.694459,41.936166]],[[-87.695374,41.936025],[-87.695362,41.936061],[-87.69535,41.936025],[-87.695374,41.936025]],[[-87.695301,41.935981],[-87.695265,41.936035],[-87.695276,41.935936],[-87.695301,41.935981]],[[-87.695229,41.936017],[-87.695217,41.936026],[-87.695217,41.936017],[-87.695229,41.936017]],[[-87.695288,41.935918],[-87.695276,41.935927],[-87.695276,41.935918],[-87.695288,41.935918]],[[-87.695228,41.9359],[-87.695216,41.935909],[-87.695216,41.9359],[-87.695228,41.9359]],[[-87.695371,41.935818],[-87.695347,41.935827],[-87.695347,41.935809],[-87.695371,41.935818]]]}}
]
}
