{"type": "FeatureCollection", "features": [{"type": "Feature", "properties": {"rank": 1, "name": "Tri-State Tollway", "area_m2": 2214643, "volume_m3": 123250928, "max_depth_m": 108.44, "edge_truncated": false}, "geometry": {"type": "Point", "coordinates": [-87.62295106759366, 41.57726472296661]}}, {"type": "Feature", "properties": {"rank": 2, "name": "South East Avenue", "area_m2": 476167, "volume_m3": 33487750, "max_depth_m": 116.07, "edge_truncated": false}, "geometry": {"type": "Point", "coordinates": [-87.85597653854634, 41.797546422400735]}}, {"type": "Feature", "properties": {"rank": 3, "name": "Whitewillow Road", "area_m2": 368114, "volume_m3": 9089780, "max_depth_m": 39.71, "edge_truncated": false}, "geometry": {"type": "Point", "coordinates": [-88.44071284350908, 41.47564836668526]}}, {"type": "Feature", "properties": {"rank": 4, "name": "East Joliet Road", "area_m2": 339438, "volume_m3": 8803227, "max_depth_m": 42.14, "edge_truncated": false}, "geometry": {"type": "Point", "coordinates": [-88.45313171804509, 41.47669006767538]}}, {"type": "Feature", "properties": {"rank": 5, "name": "North Highland Avenue", "area_m2": 306149, "volume_m3": 7354402, "max_depth_m": 57.65, "edge_truncated": false}, "geometry": {"type": "Point", "coordinates": [-87.95359401910048, 41.90147218418481]}}, {"type": "Feature", "properties": {"rank": 6, "name": "Joliet Road", "area_m2": 412589, "volume_m3": 6612293, "max_depth_m": 70.0, "edge_truncated": false}, "geometry": {"type": "Point", "coordinates": [-87.85299693965116, 41.78615686715949]}}, {"type": "Feature", "properties": {"rank": 7, "name": "Superior Avenue", "area_m2": 5581352, "volume_m3": 4310630, "max_depth_m": 9.66, "edge_truncated": true}, "geometry": {"type": "Point", "coordinates": [-87.54489617570471, 41.624381722200546]}}, {"type": "Feature", "properties": {"rank": 8, "name": "Adlai Stevenson Expressway", "area_m2": 259762, "volume_m3": 4235222, "max_depth_m": 31.75, "edge_truncated": false}, "geometry": {"type": "Point", "coordinates": [-87.84012821512853, 41.773867208058356]}}, {"type": "Feature", "properties": {"rank": 9, "name": "South Williams Street", "area_m2": 512334, "volume_m3": 4199110, "max_depth_m": 23.71, "edge_truncated": false}, "geometry": {"type": "Point", "coordinates": [-87.61700948387877, 41.564263227935086]}}, {"type": "Feature", "properties": {"rank": 10, "name": "West Dralle Road", "area_m2": 1784589, "volume_m3": 3869072, "max_depth_m": 5.51, "edge_truncated": false}, "geometry": {"type": "Point", "coordinates": [-87.79092314081772, 41.44127503558445]}}, {"type": "Feature", "properties": {"rank": 11, "name": "West County Line Road E12000N Road", "area_m2": 1048919, "volume_m3": 3802029, "max_depth_m": 9.21, "edge_truncated": true}, "geometry": {"type": "Point", "coordinates": [-87.5936463971777, 41.29752997989305]}}, {"type": "Feature", "properties": {"rank": 12, "name": "Royce Road", "area_m2": 265140, "volume_m3": 3389280, "max_depth_m": 33.34, "edge_truncated": false}, "geometry": {"type": "Point", "coordinates": [-88.07701987501328, 41.720929621280305]}}, {"type": "Feature", "properties": {"rank": 13, "name": "Kenosha Road", "area_m2": 694951, "volume_m3": 3331528, "max_depth_m": 11.92, "edge_truncated": false}, "geometry": {"type": "Point", "coordinates": [-88.2087685702173, 42.4842000338857]}}, {"type": "Feature", "properties": {"rank": 14, "name": "Higgins Road, Highpoint", "area_m2": 1818971, "volume_m3": 3260851, "max_depth_m": 3.74, "edge_truncated": false}, "geometry": {"type": "Point", "coordinates": [-88.41384191024113, 42.09468762756698]}}, {"type": "Feature", "properties": {"rank": 15, "name": "Main Street Road", "area_m2": 376899, "volume_m3": 3194404, "max_depth_m": 12.97, "edge_truncated": false}, "geometry": {"type": "Point", "coordinates": [-88.50221525693534, 41.83853969132648]}}, {"type": "Feature", "properties": {"rank": 16, "name": "South River Road", "area_m2": 302760, "volume_m3": 2916560, "max_depth_m": 34.43, "edge_truncated": false}, "geometry": {"type": "Point", "coordinates": [-88.31678375561823, 41.801942781625335]}}, {"type": "Feature", "properties": {"rank": 17, "name": "unnamed", "area_m2": 331869, "volume_m3": 2826576, "max_depth_m": 12.37, "edge_truncated": false}, "geometry": {"type": "Point", "coordinates": [-88.23904754759802, 42.07855166549058]}}, {"type": "Feature", "properties": {"rank": 18, "name": "Main Street Road", "area_m2": 440624, "volume_m3": 2748662, "max_depth_m": 6.87, "edge_truncated": false}, "geometry": {"type": "Point", "coordinates": [-88.49627042467873, 41.840814908169506]}}, {"type": "Feature", "properties": {"rank": 19, "name": "Eisenhower Expressway, Greektown", "area_m2": 813928, "volume_m3": 2240805, "max_depth_m": 8.41, "edge_truncated": false}, "geometry": {"type": "Point", "coordinates": [-87.64666493360838, 41.875671859179576]}}, {"type": "Feature", "properties": {"rank": 20, "name": "South State Line Road, Hegewisch", "area_m2": 2477456, "volume_m3": 2215591, "max_depth_m": 1.23, "edge_truncated": true}, "geometry": {"type": "Point", "coordinates": [-87.52596152600286, 41.6741084530867]}}, {"type": "Feature", "properties": {"rank": 21, "name": "West State Route 60", "area_m2": 1454182, "volume_m3": 2214663, "max_depth_m": 4.3, "edge_truncated": false}, "geometry": {"type": "Point", "coordinates": [-88.07631995186274, 42.303097044051256]}}, {"type": "Feature", "properties": {"rank": 22, "name": "North West Avenue", "area_m2": 200125, "volume_m3": 2172045, "max_depth_m": 38.63, "edge_truncated": false}, "geometry": {"type": "Point", "coordinates": [-87.95945556156678, 41.90001831326393]}}, {"type": "Feature", "properties": {"rank": 23, "name": "West Keslinger Road", "area_m2": 1626046, "volume_m3": 2171512, "max_depth_m": 3.81, "edge_truncated": false}, "geometry": {"type": "Point", "coordinates": [-88.36934335183977, 41.88354068789859]}}, {"type": "Feature", "properties": {"rank": 24, "name": "IL 47", "area_m2": 1254049, "volume_m3": 2104111, "max_depth_m": 3.09, "edge_truncated": false}, "geometry": {"type": "Point", "coordinates": [-88.42173835113066, 42.204465098692275]}}, {"type": "Feature", "properties": {"rank": 25, "name": "Birch Road", "area_m2": 1123227, "volume_m3": 2044402, "max_depth_m": 5.02, "edge_truncated": false}, "geometry": {"type": "Point", "coordinates": [-88.44263150162955, 42.33515994927711]}}, {"type": "Feature", "properties": {"rank": 26, "name": "Hawks Hollow Road", "area_m2": 808941, "volume_m3": 2037517, "max_depth_m": 6.43, "edge_truncated": false}, "geometry": {"type": "Point", "coordinates": [-87.93610425721077, 41.53558181619059]}}, {"type": "Feature", "properties": {"rank": 27, "name": "Lily Pond Road", "area_m2": 994286, "volume_m3": 2033799, "max_depth_m": 3.76, "edge_truncated": false}, "geometry": {"type": "Point", "coordinates": [-88.38983816004422, 42.27928190710407]}}, {"type": "Feature", "properties": {"rank": 28, "name": "West County Line Road", "area_m2": 1249588, "volume_m3": 1898369, "max_depth_m": 5.1, "edge_truncated": true}, "geometry": {"type": "Point", "coordinates": [-87.79473123920891, 41.29598404285557]}}, {"type": "Feature", "properties": {"rank": 29, "name": "East 112th Street, Hegewisch", "area_m2": 3438071, "volume_m3": 1884685, "max_depth_m": 2.23, "edge_truncated": true}, "geometry": {"type": "Point", "coordinates": [-87.52826693157407, 41.691589710385216]}}, {"type": "Feature", "properties": {"rank": 30, "name": "Calumet Expressway", "area_m2": 1114775, "volume_m3": 1793920, "max_depth_m": 3.83, "edge_truncated": false}, "geometry": {"type": "Point", "coordinates": [-87.58212367140783, 41.54447592649268]}}, {"type": "Feature", "properties": {"rank": 31, "name": "Olympian Way", "area_m2": 774617, "volume_m3": 1746949, "max_depth_m": 7.58, "edge_truncated": false}, "geometry": {"type": "Point", "coordinates": [-87.69544853632723, 41.512023505775055]}}, {"type": "Feature", "properties": {"rank": 32, "name": "Centennial Trail", "area_m2": 136386, "volume_m3": 1664166, "max_depth_m": 35.2, "edge_truncated": false}, "geometry": {"type": "Point", "coordinates": [-88.05162626576396, 41.66763641196409]}}, {"type": "Feature", "properties": {"rank": 33, "name": "Oakmont Drive", "area_m2": 322997, "volume_m3": 1639486, "max_depth_m": 11.63, "edge_truncated": false}, "geometry": {"type": "Point", "coordinates": [-88.39426996561096, 42.304814010736095]}}, {"type": "Feature", "properties": {"rank": 34, "name": "West Belvidere Road", "area_m2": 1971540, "volume_m3": 1587569, "max_depth_m": 3.04, "edge_truncated": false}, "geometry": {"type": "Point", "coordinates": [-88.08334003868842, 42.3417387498329]}}, {"type": "Feature", "properties": {"rank": 35, "name": "Lucas Road", "area_m2": 1566155, "volume_m3": 1544567, "max_depth_m": 3.4, "edge_truncated": false}, "geometry": {"type": "Point", "coordinates": [-88.38773135444187, 42.26396122798613]}}, {"type": "Feature", "properties": {"rank": 36, "name": "West Cuba Road, Deer Park", "area_m2": 1176947, "volume_m3": 1443484, "max_depth_m": 2.9, "edge_truncated": false}, "geometry": {"type": "Point", "coordinates": [-88.11255557446577, 42.174585019819006]}}, {"type": "Feature", "properties": {"rank": 37, "name": "US 30", "area_m2": 820187, "volume_m3": 1408006, "max_depth_m": 5.14, "edge_truncated": false}, "geometry": {"type": "Point", "coordinates": [-88.47947526625802, 41.763674495473545]}}, {"type": "Feature", "properties": {"rank": 38, "name": "Ronald Reagan Memorial Tollway", "area_m2": 1294392, "volume_m3": 1403539, "max_depth_m": 3.77, "edge_truncated": false}, "geometry": {"type": "Point", "coordinates": [-88.50745798718137, 41.85049475260538]}}, {"type": "Feature", "properties": {"rank": 39, "name": "Dover Street, Southampton", "area_m2": 900943, "volume_m3": 1322138, "max_depth_m": 3.0, "edge_truncated": false}, "geometry": {"type": "Point", "coordinates": [-88.42550336545047, 42.072748214465605]}}, {"type": "Feature", "properties": {"rank": 40, "name": "Gifford Road", "area_m2": 503319, "volume_m3": 1311134, "max_depth_m": 4.37, "edge_truncated": false}, "geometry": {"type": "Point", "coordinates": [-88.24597124901251, 42.01592745230028]}}, {"type": "Feature", "properties": {"rank": 41, "name": "U.S. Grant Memorial Highway", "area_m2": 1804234, "volume_m3": 1270421, "max_depth_m": 3.02, "edge_truncated": false}, "geometry": {"type": "Point", "coordinates": [-88.40705761649417, 42.054720154291815]}}, {"type": "Feature", "properties": {"rank": 42, "name": "Reinking Road, Carillon at Cambridge Lakes", "area_m2": 1147577, "volume_m3": 1251508, "max_depth_m": 2.32, "edge_truncated": false}, "geometry": {"type": "Point", "coordinates": [-88.45528460293701, 42.1048418124775]}}, {"type": "Feature", "properties": {"rank": 43, "name": "Big Timber Road", "area_m2": 320853, "volume_m3": 1243922, "max_depth_m": 10.51, "edge_truncated": false}, "geometry": {"type": "Point", "coordinates": [-88.30408023742727, 42.05809815400644]}}, {"type": "Feature", "properties": {"rank": 44, "name": "IL 47", "area_m2": 1794672, "volume_m3": 1235610, "max_depth_m": 2.75, "edge_truncated": true}, "geometry": {"type": "Point", "coordinates": [-88.43179829857104, 42.15482439689493]}}, {"type": "Feature", "properties": {"rank": 45, "name": "North Darrell Road", "area_m2": 1016343, "volume_m3": 1153957, "max_depth_m": 2.41, "edge_truncated": false}, "geometry": {"type": "Point", "coordinates": [-88.17287243936035, 42.283705740865834]}}, {"type": "Feature", "properties": {"rank": 46, "name": "Dan Ryan Expressway (Express), Armour Square", "area_m2": 379158, "volume_m3": 1144408, "max_depth_m": 7.45, "edge_truncated": false}, "geometry": {"type": "Point", "coordinates": [-87.63090348732305, 41.840281623726064]}}, {"type": "Feature", "properties": {"rank": 47, "name": "East Indiana Avenue", "area_m2": 406014, "volume_m3": 1142503, "max_depth_m": 7.46, "edge_truncated": false}, "geometry": {"type": "Point", "coordinates": [-87.54251210946259, 41.34204608702225]}}, {"type": "Feature", "properties": {"rank": 48, "name": "Power Drive", "area_m2": 373067, "volume_m3": 1131688, "max_depth_m": 7.06, "edge_truncated": true}, "geometry": {"type": "Point", "coordinates": [-88.2379914128153, 42.09822384224082]}}, {"type": "Feature", "properties": {"rank": 49, "name": "Vulcan Boulevard", "area_m2": 55346, "volume_m3": 1129558, "max_depth_m": 59.97, "edge_truncated": false}, "geometry": {"type": "Point", "coordinates": [-88.25569816628611, 42.006337681815076]}}, {"type": "Feature", "properties": {"rank": 50, "name": "unnamed", "area_m2": 1104520, "volume_m3": 1107517, "max_depth_m": 10.86, "edge_truncated": true}, "geometry": {"type": "Point", "coordinates": [-87.55041321902793, 41.56024176898728]}}, {"type": "Feature", "properties": {"rank": 51, "name": "Lukens Road", "area_m2": 1063027, "volume_m3": 1075368, "max_depth_m": 3.64, "edge_truncated": true}, "geometry": {"type": "Point", "coordinates": [-88.58898648761483, 42.034620809982556]}}, {"type": "Feature", "properties": {"rank": 52, "name": "IL 64", "area_m2": 1328441, "volume_m3": 1067264, "max_depth_m": 2.95, "edge_truncated": false}, "geometry": {"type": "Point", "coordinates": [-88.55640621828731, 41.95889188465046]}}, {"type": "Feature", "properties": {"rank": 53, "name": "South Ridgeland Avenue, Maple Brook", "area_m2": 799972, "volume_m3": 1056220, "max_depth_m": 4.21, "edge_truncated": false}, "geometry": {"type": "Point", "coordinates": [-87.76995759664088, 41.49143539078137]}}, {"type": "Feature", "properties": {"rank": 54, "name": "Royce Road", "area_m2": 347304, "volume_m3": 1050435, "max_depth_m": 15.01, "edge_truncated": false}, "geometry": {"type": "Point", "coordinates": [-88.07978678324457, 41.72103875632769]}}, {"type": "Feature", "properties": {"rank": 55, "name": "West Laraway Road", "area_m2": 565023, "volume_m3": 1035792, "max_depth_m": 6.29, "edge_truncated": true}, "geometry": {"type": "Point", "coordinates": [-87.79907603525233, 41.484274079900075]}}, {"type": "Feature", "properties": {"rank": 56, "name": "Ronald Reagan Memorial Tollway", "area_m2": 121066, "volume_m3": 1029648, "max_depth_m": 14.25, "edge_truncated": false}, "geometry": {"type": "Point", "coordinates": [-88.49488652820139, 41.84707448482145]}}, {"type": "Feature", "properties": {"rank": 57, "name": "Kennedy Expressway, Montrose", "area_m2": 245009, "volume_m3": 1018595, "max_depth_m": 9.48, "edge_truncated": false}, "geometry": {"type": "Point", "coordinates": [-87.74612580424231, 41.96283013252615]}}, {"type": "Feature", "properties": {"rank": 58, "name": "Main Service Road, O'Hare", "area_m2": 909321, "volume_m3": 925643, "max_depth_m": 3.59, "edge_truncated": false}, "geometry": {"type": "Point", "coordinates": [-87.89354347907985, 41.968027973031624]}}, {"type": "Feature", "properties": {"rank": 59, "name": "South Union Road", "area_m2": 1377110, "volume_m3": 924483, "max_depth_m": 2.19, "edge_truncated": false}, "geometry": {"type": "Point", "coordinates": [-88.44162620960935, 42.20917017237765]}}, {"type": "Feature", "properties": {"rank": 60, "name": "West County Line Road", "area_m2": 548034, "volume_m3": 922161, "max_depth_m": 4.25, "edge_truncated": true}, "geometry": {"type": "Point", "coordinates": [-87.76996498883366, 41.29643160368378]}}]}